{
"type": "FeatureCollection",
"name": "Phase7_Contingent_Catchments",
"crs": { "type": "name", "properties": { "name": "urn:ogc:def:crs:OGC::CRS84" } },
"features": [
{"type":"Feature","properties":{"sde_LDR_Mi":0.0,"CAT_NAME":"Verulam 5","MAJ_CAT":"Mdloti River","Shape_STAr":1368662.9696,"Shape_STLe":6503.2936589299998},"geometry":{"type":"Polygon","coordinates":[[[31.045614896425921,-29.63060838084446],[31.048655582622406,-29.630773864384814],[31.049835537711811,-29.63224834910551],[31.049447574663802,-29.632872772272933],[31.04966954253478,-29.633412623442055],[31.049768293366,-29.634959128492614],[31.049630404661954,-29.634898194833049],[31.049490441105693,-29.633750721483235],[31.048959608541782,-29.633629123727729],[31.04824517872969,-29.634173370214334],[31.047139276654303,-29.634295636589385],[31.046859859235077,-29.634778559002466],[31.045756796542399,-29.635263202816425],[31.045617083017593,-29.635504662614323],[31.044896595605763,-29.635963370127214],[31.043847333284788,-29.636497507782938],[31.043322322037316,-29.637219298042602],[31.042187079898159,-29.637404771556113],[31.041637297237276,-29.637942706682999],[31.040378859065168,-29.638282669350382],[31.039424526317447,-29.640100668222601],[31.038075950457056,-29.640464968480597],[31.037425695779667,-29.640861906126272],[31.036886491135501,-29.641078293306823],[31.036082593008786,-29.64186481039944],[31.035513613194222,-29.642309171293476],[31.034093398326732,-29.643210044629551],[31.033275165264957,-29.644489843034609],[31.03222553544061,-29.644661316533327],[31.030674806609873,-29.645845458336023],[31.030765033582931,-29.64538047462435],[31.031286800557723,-29.644765367811619],[31.031023080469005,-29.643208777622434],[31.030141595752465,-29.643046494883471],[31.029960704313464,-29.642841837402301],[31.029843467238248,-29.642762835597654],[31.029753073632303,-29.642660551325431],[31.029518599375766,-29.642502545435416],[31.029128000158757,-29.642060668141607],[31.028922246723944,-29.641209987553577],[31.028012449394833,-29.640138520773249],[31.028181842496632,-29.639499045995798],[31.028272228158237,-29.639215303500684],[31.028852509596156,-29.638531176076214],[31.030724856632034,-29.638909652870094],[31.031179280687514,-29.638670041488158],[31.031385349023292,-29.637401240504381],[31.032242423585181,-29.637242993644382],[31.032603940902078,-29.636833521493354],[31.033270801416272,-29.636383651409417],[31.033536277081467,-29.635016129331138],[31.034200016118938,-29.634238685494886],[31.035594406957642,-29.633978068195685],[31.036133731438373,-29.634505138821375],[31.036458007498588,-29.634284661161399],[31.037082464391872,-29.63367354844377],[31.037739960437964,-29.633159870889152],[31.038213351177763,-29.632696761813555],[31.039083167438765,-29.632519696856612],[31.039694096256824,-29.632327997066291],[31.041321400316271,-29.632062105544893],[31.04197695264854,-29.631420572786169],[31.04219610593503,-29.631249369840546],[31.042507517481805,-29.630944619639838],[31.044002097112756,-29.630665203600593],[31.044529453812888,-29.630915286846353],[31.045199869831027,-29.63078993904967],[31.045614896425921,-29.63060838084446]]]}},
{"type":"Feature","properties":{"sde_LDR_Mi":0.0,"CAT_NAME":"Verulam 11","MAJ_CAT":"Mdloti River","Shape_STAr":133964.21990200001,"Shape_STLe":1675.6526830800001},"geometry":{"type":"Polygon","coordinates":[[[31.047643510353637,-29.637055476440544],[31.046523996713177,-29.636265222462093],[31.045617083017593,-29.635504662614299],[31.045756796542417,-29.635263202816425],[31.046859859235092,-29.634778559002456],[31.04713927665432,-29.634295636589385],[31.048245178729701,-29.63417337021432],[31.048959608541782,-29.633629123727729],[31.0494904411057,-29.633750721483235],[31.049630404661986,-29.634898194833049],[31.049768293366007,-29.634959128492593],[31.050268340196975,-29.63524754034194],[31.052259433273004,-29.635320856212953],[31.052059099169714,-29.635524094604129],[31.050293999841539,-29.636816895728071],[31.050184487264488,-29.637135031527027],[31.047643510353637,-29.637055476440544]]]}},
{"type":"Feature","properties":{"sde_LDR_Mi":0.0,"CAT_NAME":"Verulam 10","MAJ_CAT":"Mdloti River","Shape_STAr":347868.86939499999,"Shape_STLe":3078.8384692200002},"geometry":{"type":"Polygon","coordinates":[[[31.050324405923696,-29.640889692129541],[31.049671127443808,-29.640493531427666],[31.049870618450758,-29.640014601237787],[31.049184899961205,-29.639144915764636],[31.049255500069112,-29.637571466217608],[31.050084673652638,-29.637229161646129],[31.050184487264488,-29.637135031527027],[31.050293999841539,-29.636816895728071],[31.052059099169714,-29.635524094604129],[31.052259433273004,-29.635320856212953],[31.052966753518472,-29.635031896733668],[31.054872794835951,-29.634883093531631],[31.055372646440631,-29.634594297096317],[31.055457681692328,-29.635064186880921],[31.056032187971663,-29.635711145815868],[31.055291796541606,-29.636705515330455],[31.055166490330745,-29.637133215242805],[31.054640260339955,-29.637942644875057],[31.054449337080857,-29.640313719464775],[31.054337850207336,-29.64039766234492],[31.053799717236281,-29.641069124796598],[31.050324405923696,-29.640889692129541]]]}},
{"type":"Feature","properties":{"sde_LDR_Mi":0.0,"CAT_NAME":"Verulam 6","MAJ_CAT":"Mdloti River","Shape_STAr":2166582.9315999998,"Shape_STLe":7495.4773833700001},"geometry":{"type":"Polygon","coordinates":[[[31.043041977153322,-29.649991109035614],[31.043172958571791,-29.650997056066181],[31.043490469375808,-29.651725981699776],[31.043810424683805,-29.652255776330758],[31.043818982649263,-29.65308642741703],[31.043352018888442,-29.653647038585682],[31.043757173077879,-29.65454616856918],[31.041681042820752,-29.654546812259266],[31.041154255237686,-29.65446307081946],[31.040455357711764,-29.653755004691835],[31.039356097713732,-29.653466274916411],[31.038920433584181,-29.651794095460591],[31.038250238540563,-29.651409358612163],[31.037349518941944,-29.651226820365629],[31.035036170962034,-29.651389900662227],[31.034719811888884,-29.651367787439685],[31.034109688622507,-29.651563613508664],[31.033263967481663,-29.65173170632638],[31.032903113702705,-29.652097791332395],[31.032226050194918,-29.65227594141497],[31.031661075515267,-29.652551495054695],[31.031143825297118,-29.651830619420227],[31.030787617532063,-29.650462863541424],[31.030212812311131,-29.650295190855992],[31.029334567358863,-29.650839458066155],[31.028696337189036,-29.651007388192646],[31.027871361661642,-29.651518616416578],[31.027147091199328,-29.651286456437123],[31.028229376356695,-29.650147653167764],[31.028803721188748,-29.648302840001442],[31.029541178791327,-29.647393869028424],[31.030148124436323,-29.645929473515693],[31.030674806609877,-29.645845458336023],[31.032225535440642,-29.644661316533295],[31.033275165264968,-29.644489843034609],[31.034093398326725,-29.643210044629551],[31.035513613194222,-29.642309171293476],[31.036082593008803,-29.641864810399372],[31.036886491135501,-29.641078293306823],[31.037425695779667,-29.640861906126272],[31.038075950457056,-29.640464968480597],[31.039424526317447,-29.640100668222583],[31.040378859065175,-29.638282669350374],[31.04163729723728,-29.637942706682946],[31.042187079898159,-29.637404771556113],[31.043322322037316,-29.637219298042595],[31.043847333284788,-29.636497507782938],[31.044896595605788,-29.635963370127204],[31.045617083017593,-29.635504662614277],[31.046523996713177,-29.636265222462093],[31.047643510353637,-29.637055476440523],[31.050184487264513,-29.637135031527027],[31.050084673652638,-29.637229161646129],[31.049255500069112,-29.637571466217608],[31.049184899961205,-29.639144915764636],[31.049870618450758,-29.640014601237787],[31.049671127443808,-29.640493531427666],[31.047281504850833,-29.6436644314897],[31.047281588543655,-29.643845761530024],[31.047174643187489,-29.644397187416825],[31.046749742703064,-29.645013045222946],[31.046448676405781,-29.645656464938394],[31.045659774750565,-29.645938830794332],[31.045297301078971,-29.646464267950169],[31.0451166331992,-29.646850354267738],[31.044882342791546,-29.647189727202964],[31.044701672036023,-29.647575812915875],[31.043895196513297,-29.647980146578366],[31.04370805943417,-29.64860069656844],[31.043456909077026,-29.649389700273577],[31.043041977153322,-29.649991109035614]]]}},
{"type":"Feature","properties":{"sde_LDR_Mi":0.0,"CAT_NAME":"Verulam 9","MAJ_CAT":"Mdloti River","Shape_STAr":521378.4319,"Shape_STLe":3848.7257880400002},"geometry":{"type":"Polygon","coordinates":[[[31.057300484748104,-29.639945807276696],[31.058575111064819,-29.641491245964314],[31.058056407416249,-29.642283143910305],[31.057774076553855,-29.642852427419026],[31.05675550136305,-29.643050252875362],[31.056698357759846,-29.643542395784152],[31.057132643482429,-29.64375944676911],[31.057755624085118,-29.643995087847482],[31.057525582740777,-29.644815595336315],[31.056737505604254,-29.645210350530334],[31.055888065733907,-29.6453752793517],[31.055586443454935,-29.645837122029615],[31.054645215528389,-29.645702548245332],[31.054548713533599,-29.646200299573813],[31.052361142127545,-29.646117388985754],[31.052168661013329,-29.645559940802855],[31.051498646710652,-29.644813313134559],[31.051548460873192,-29.644268130858727],[31.051093676503903,-29.643926210327514],[31.047489084895574,-29.643664359120535],[31.047281504850833,-29.6436644314897],[31.049671127443808,-29.640493531427666],[31.05032440592371,-29.640889692129541],[31.053799717236281,-29.641069124796598],[31.054337850207336,-29.64039766234492],[31.054449337080857,-29.640313719464775],[31.054640260339955,-29.637942644875057],[31.055166490330745,-29.637133215242805],[31.058280214606565,-29.63713172387245],[31.058059184263314,-29.638646493482241],[31.057772015542845,-29.639225788752501],[31.057300484748104,-29.639945807276696]]]}},
{"type":"Feature","properties":{"sde_LDR_Mi":0.0,"CAT_NAME":"Verulam 4","MAJ_CAT":"Mdloti River","Shape_STAr":886870.26691699994,"Shape_STLe":5059.4127403399998},"geometry":{"type":"Polygon","coordinates":[[[31.018635787373746,-29.654733437406215],[31.016939823875795,-29.654404705115308],[31.01662552367166,-29.654213790000281],[31.015659336932551,-29.654069342152624],[31.014402814661164,-29.653340345815955],[31.013902736360496,-29.653440650534034],[31.013701876596194,-29.653419189014627],[31.013410825883479,-29.653318967436039],[31.013237509010015,-29.652920573347227],[31.01332197425587,-29.651912599889815],[31.014184975488828,-29.651753470757146],[31.014526161805772,-29.651367253250843],[31.014932549860173,-29.650499826381033],[31.016827799548327,-29.650218349382563],[31.018048596264528,-29.650375722791598],[31.019178222025349,-29.650087890005324],[31.019880375364689,-29.649293014089778],[31.019991891351523,-29.64920910748172],[31.020206979760996,-29.648990941799049],[31.021429412685137,-29.648107303300527],[31.022817626903592,-29.64788588389689],[31.02313968136016,-29.646646293503025],[31.023505015133576,-29.645930837292031],[31.02648808980755,-29.645758900144791],[31.027403744193602,-29.644644578680186],[31.028087073831639,-29.644130040474693],[31.02827901282005,-29.643209816084937],[31.029635995208434,-29.643125542348258],[31.029843467238248,-29.642762835597654],[31.029960704313488,-29.642841837402237],[31.030141595752479,-29.643046494883421],[31.031023080469005,-29.643208777622416],[31.03128680055773,-29.644765367811615],[31.030765033582949,-29.64538047462435],[31.030674806609877,-29.645845458336023],[31.030148124436323,-29.645929473515693],[31.029541178791327,-29.647393869028424],[31.028803721188748,-29.648302840001442],[31.028229376356695,-29.650147653167764],[31.027147091199328,-29.651286456437123],[31.026178740717445,-29.651347623720024],[31.025946044956566,-29.6517496601499],[31.025486357065986,-29.65183084516455],[31.025369151663973,-29.651909893970775],[31.024885022557143,-29.652943643842345],[31.023915661259444,-29.653179629154728],[31.022507847123794,-29.653361097197905],[31.021469997544131,-29.653004902737461],[31.019287555602219,-29.653492226685344],[31.019015447990625,-29.654073202017891],[31.018726079634071,-29.654268371359738],[31.018635787373746,-29.654733437406215]]]}},
{"type":"Feature","properties":{"sde_LDR_Mi":0.0,"CAT_NAME":"Verulam 7","MAJ_CAT":"Mdloti River","Shape_STAr":865781.38758600003,"Shape_STLe":4079.1016404100001},"geometry":{"type":"Polygon","coordinates":[[[31.043352018888442,-29.653647038585682],[31.043818982649263,-29.65308642741703],[31.043810424683805,-29.652255776330758],[31.043490469375808,-29.651725981699776],[31.043172958571791,-29.650997056066181],[31.043041977153322,-29.649991109035614],[31.043456909077026,-29.649389700273577],[31.04370805943417,-29.64860069656844],[31.043895196513297,-29.647980146578366],[31.044701672036023,-29.647575812915875],[31.044882342791546,-29.647189727202964],[31.0451166331992,-29.646850354267738],[31.045297301078971,-29.646464267950169],[31.045659774750565,-29.645938830794332],[31.046448676405781,-29.645656464938394],[31.046749742703064,-29.645013045222946],[31.047174643187489,-29.644397187416825],[31.047281588543655,-29.643845761530024],[31.047281504850833,-29.6436644314897],[31.047489084895574,-29.643664359120535],[31.051093676503903,-29.643926210327514],[31.051548460873192,-29.644268130858727],[31.051498646710652,-29.644813313134545],[31.052168661013329,-29.645559940802855],[31.052361142127545,-29.646117388985754],[31.054548713533599,-29.646200299573813],[31.054463980642762,-29.646307598926089],[31.053062364421095,-29.646470035145459],[31.052944247662619,-29.646931345313899],[31.053096137531409,-29.647470405590969],[31.053188510436847,-29.647752378250701],[31.053428409378846,-29.647919992026324],[31.053188782792013,-29.648276342095485],[31.052842210734589,-29.649337304651649],[31.052458444234734,-29.65013382377483],[31.052350957348015,-29.650240670470151],[31.052180212340794,-29.650330247921033],[31.052105128700006,-29.650455591651337],[31.051980615320613,-29.650764285907062],[31.051583277731069,-29.651968119148744],[31.051248593861626,-29.652111465132148],[31.050353471128954,-29.651789571645853],[31.049766059129272,-29.651738795932214],[31.049451909945475,-29.652453588390394],[31.049479580433072,-29.652647358430006],[31.050137104813345,-29.654398972806952],[31.049381888401449,-29.655469782456098],[31.048793064957991,-29.655401987227094],[31.048128760444289,-29.655325498101529],[31.046174358654319,-29.655714012658034],[31.044612807158025,-29.655546011819325],[31.043872472942439,-29.65462678332521],[31.043757173077879,-29.65454616856918],[31.043352018888442,-29.653647038585682]]]}},
{"type":"Feature","properties":{"sde_LDR_Mi":0.0,"CAT_NAME":"Verulam 8","MAJ_CAT":"Mdloti River","Shape_STAr":1385610.87653,"Shape_STLe":6184.6285921299996},"geometry":{"type":"Polygon","coordinates":[[[31.057401446919087,-29.654333369362583],[31.055896700627585,-29.65752676073318],[31.055497177608288,-29.658084452508582],[31.05406439854881,-29.659547151632147],[31.052621712666134,-29.660013019324186],[31.051487567908666,-29.660049268672722],[31.051012758250312,-29.659732762332716],[31.050334715682354,-29.659564368200709],[31.049801773975638,-29.659515637336298],[31.049522682726202,-29.659490117052567],[31.049507382148185,-29.659492098347904],[31.049067271199426,-29.659724202026464],[31.048522300745372,-29.659919176031529],[31.048215304323143,-29.659879685619639],[31.04741220993359,-29.660303265075846],[31.045726607745024,-29.660062014319006],[31.045104687229493,-29.660275864672364],[31.044291853047881,-29.659702610872102],[31.043642117353418,-29.659363418097666],[31.043253407600783,-29.65879617378819],[31.041769286297185,-29.657365996576921],[31.041831935401213,-29.656994835419844],[31.041713907020409,-29.65629913691334],[31.040683866006251,-29.655605241347914],[31.041128324375272,-29.654961062302664],[31.041590606526533,-29.654649143248861],[31.041681042820752,-29.654546812259266],[31.043757173077879,-29.65454616856918],[31.043872472942439,-29.65462678332521],[31.044612807158025,-29.655546011819325],[31.046174358654319,-29.655714012658034],[31.048128760444289,-29.655325498101529],[31.048793064957991,-29.655401987227094],[31.049381888401449,-29.655469782456098],[31.050137104813345,-29.654398972806952],[31.049479580433072,-29.652647358430006],[31.049451909945475,-29.652453588390394],[31.049766059129272,-29.651738795932214],[31.050353471128954,-29.651789571645853],[31.051248593861626,-29.652111465132148],[31.051583277731069,-29.651968119148744],[31.051980615320613,-29.650764285907062],[31.052105128700006,-29.650455591651337],[31.052180212340794,-29.650330247921033],[31.052350957348015,-29.650240670470151],[31.052458444234734,-29.65013382377483],[31.052842210734589,-29.649337304651649],[31.053188782792013,-29.648276342095485],[31.053428409378846,-29.647919992026324],[31.053188510436847,-29.647752378250701],[31.053096137531409,-29.647470405590969],[31.052944247662619,-29.646931345313899],[31.053062364421095,-29.646470035145459],[31.054463980642762,-29.646307598926089],[31.054548713533599,-29.646200299573813],[31.054645215528389,-29.645702548245332],[31.055586443454935,-29.645837122029615],[31.056414598924377,-29.646199507159267],[31.056694645631364,-29.646682485373336],[31.058216089836304,-29.646803617952202],[31.058285870742658,-29.646924023170538],[31.058518211963055,-29.649775252261442],[31.058161015010526,-29.651119242227587],[31.057678534225154,-29.65229557723281],[31.057777265538427,-29.653728680019011],[31.057401446919087,-29.654333369362583]]]}},
{"type":"Feature","properties":{"sde_LDR_Mi":0.0,"CAT_NAME":"Verulam 2","MAJ_CAT":"Ohlanga River","Shape_STAr":702166.36032800004,"Shape_STLe":4353.6952413},"geometry":{"type":"Polygon","coordinates":[[[31.008351613623155,-29.6611788140385],[31.008745360615332,-29.660523492147384],[31.008644009429275,-29.659562880373265],[31.008826160953362,-29.65839561430921],[31.008511875621171,-29.658128301512733],[31.008143712730622,-29.657552037733442],[31.008047328686484,-29.654553155071259],[31.008368332178353,-29.654470861167614],[31.009488216788831,-29.654103167023969],[31.011091690138585,-29.653923877008072],[31.012520464228221,-29.653382458617255],[31.013029930167935,-29.653101928266508],[31.013164301361954,-29.655691530696167],[31.01291976933296,-29.6560952628822],[31.013554854341749,-29.656609161672371],[31.013531062350275,-29.657137007599022],[31.013990284442087,-29.657935326913112],[31.013848395708951,-29.658194466892091],[31.013553782905337,-29.659543015425488],[31.012707495807895,-29.66098353856674],[31.013229509662331,-29.661645931784207],[31.013678003288732,-29.66328959488532],[31.013969631816856,-29.663525565891721],[31.014169372049228,-29.664076482573517],[31.014800392831596,-29.665520199807847],[31.015734638661652,-29.665904704541873],[31.015950844899749,-29.666515133106859],[31.016673950302042,-29.667338430612038],[31.016246325365103,-29.667514757542662],[31.015838946435721,-29.667703080109025],[31.01427771334366,-29.667790481416823],[31.013127950100195,-29.667344032830638],[31.012226366666752,-29.666430427774813],[31.01053993639648,-29.666340164974486],[31.010236148284314,-29.665336017540618],[31.009066845035672,-29.664143829334837],[31.008755919963157,-29.661482991712422],[31.008351613623155,-29.6611788140385]]]}},
{"type":"Feature","properties":{"sde_LDR_Mi":0.0,"CAT_NAME":"Cornubia 1","MAJ_CAT":"Ohlanga River","Shape_STAr":1438136.1098199999,"Shape_STLe":5600.6452342599996},"geometry":{"type":"Polygon","coordinates":[[[31.043381544604351,-29.680035100052002],[31.043228120208735,-29.680446783260354],[31.043050744305113,-29.681150984296941],[31.043242581850659,-29.682302613662337],[31.044049224356279,-29.682881177457283],[31.044327611756362,-29.682980162174431],[31.045041355030129,-29.683571385707605],[31.045420315930524,-29.683420870294057],[31.045668528519759,-29.68317613486877],[31.045840709645141,-29.683104467647439],[31.046217949029344,-29.683125818931021],[31.046715436015877,-29.683085066737124],[31.048156794454368,-29.683187401893786],[31.048511438965246,-29.684794681404849],[31.049287532066796,-29.685632473171154],[31.049468886197708,-29.686562408407283],[31.050135257278505,-29.686724092557636],[31.049512813932193,-29.687457842626362],[31.049378957093772,-29.687548105043046],[31.048547919956103,-29.687004426431802],[31.048455704419009,-29.687105137512944],[31.047394460520977,-29.687629472325881],[31.047169536487718,-29.68898283139092],[31.045895897193844,-29.689637135319778],[31.042826429048763,-29.689807119928545],[31.042526005851176,-29.690134868492599],[31.041591924289957,-29.690236650629782],[31.040618498098201,-29.690131220664977],[31.039924527813714,-29.690487678598263],[31.039318988300924,-29.690553622262314],[31.039203712613734,-29.690634306141352],[31.037632599340636,-29.690748829515044],[31.03671127721439,-29.690453727528698],[31.036536456922985,-29.689289394178463],[31.035847865895523,-29.68821261531377],[31.035575479046827,-29.686911182752652],[31.035144690447623,-29.686743500057698],[31.034741006538614,-29.686334626365156],[31.034536049681009,-29.684009988089088],[31.034194934840791,-29.683476551744398],[31.034467112580977,-29.680507382638424],[31.034630834529818,-29.680117890821577],[31.034630108365128,-29.67794176385857],[31.035460709140242,-29.677941552318483],[31.035460213506543,-29.676490831598773],[31.035482191746329,-29.676411725897218],[31.035536659899886,-29.676356728127885],[31.035673279367714,-29.676218249265084],[31.035968480794537,-29.676218169471912],[31.036312943700999,-29.67638516076854],[31.03646876971878,-29.676454338604007],[31.036572561821192,-29.676244261047774],[31.036752946007642,-29.676196472375526],[31.036909115343782,-29.676243914238196],[31.037108343949381,-29.676368231816529],[31.037316133620095,-29.676516162111849],[31.037690508800829,-29.676554625808411],[31.038029470879323,-29.677855598255093],[31.040607297002008,-29.678027431600547],[31.040528551943179,-29.678887108671876],[31.041071783417845,-29.679474593404432],[31.042251390736102,-29.679428600892408],[31.04275438964223,-29.679533464341876],[31.043381544604351,-29.680035100052002]]]}},
{"type":"Feature","properties":{"sde_LDR_Mi":0.0,"CAT_NAME":"Cornubia 2","MAJ_CAT":"Ohlanga River","Shape_STAr":753768.63283300004,"Shape_STLe":4547.8901309100002},"geometry":{"type":"Polygon","coordinates":[[[31.052741285024748,-29.678033336747571],[31.05290540250428,-29.679749124485312],[31.052080922732252,-29.67963117824856],[31.051009869089974,-29.679769885382065],[31.049492817261587,-29.680759459099967],[31.049050822591958,-29.680917675393253],[31.048870194342349,-29.681485091170174],[31.048635922737951,-29.682005885540015],[31.048455374089329,-29.682754633244279],[31.048156794454368,-29.683187401893786],[31.046715436015877,-29.683085066737124],[31.046217949029344,-29.683125818931021],[31.045840709645141,-29.683104467647439],[31.045668528519759,-29.68317613486877],[31.045420315930524,-29.683420870294057],[31.045041355030129,-29.683571385707605],[31.044327611756362,-29.68298016217441],[31.044049224356296,-29.682881177457272],[31.043242581850659,-29.682302613662337],[31.043050744305113,-29.681150984296941],[31.043228120208735,-29.680446783260354],[31.043381544604351,-29.680035100052002],[31.04275438964223,-29.679533464341876],[31.042251390736102,-29.679428600892408],[31.041071783417845,-29.679474593404432],[31.041787221841762,-29.678748968488769],[31.04201019744421,-29.678581102830144],[31.042106235476687,-29.678483642609692],[31.042406054019061,-29.678020213985526],[31.04263667567049,-29.677858840245936],[31.04350788653457,-29.67690798500692],[31.043807907400634,-29.676460250350988],[31.04491997795423,-29.675681976225714],[31.045424204155651,-29.67495640362133],[31.051980066493051,-29.675115240967948],[31.052580450905577,-29.675860437811796],[31.053050503064132,-29.675900326340624],[31.053153663021419,-29.676170167844475],[31.053284357073117,-29.676678135276955],[31.053478218268271,-29.67690949876231],[31.053431294242635,-29.677851555287241],[31.052741285024748,-29.678033336747571]]]}},
{"type":"Feature","properties":{"sde_LDR_Mi":0.0,"CAT_NAME":"Avoca 3","MAJ_CAT":"Umhlangane River","Shape_STAr":2248381.58666,"Shape_STLe":7623.4825010499999},"geometry":{"type":"Polygon","coordinates":[[[31.002875096145583,-29.759233139922252],[31.002851663668178,-29.759393815185387],[31.002822829311491,-29.759522290608757],[31.002768120978622,-29.75967027946086],[31.002768125833196,-29.759846909932389],[31.002718891247877,-29.760096341814108],[31.002718897369391,-29.760323097133718],[31.002807815292496,-29.760666211863832],[31.002862704083917,-29.760878014444945],[31.002945298808129,-29.761074036516469],[31.002605898657805,-29.761865779687284],[31.002114051854814,-29.762524773802376],[31.001917397412345,-29.763193116285958],[31.000909313558768,-29.763695116865449],[31.00069699003307,-29.764189907104882],[30.999827562530573,-29.765063399339244],[30.999742657776572,-29.765351981378277],[30.999031765469773,-29.76583071527412],[30.998374909199146,-29.767230601263972],[30.997546749032825,-29.7677883532048],[30.997365683004258,-29.767992946012185],[30.996748976945621,-29.768408257544284],[30.996428130078158,-29.76941338549095],[30.996389914070253,-29.769533095518675],[30.995857033347679,-29.770303649127008],[30.995494861163422,-29.771075660658667],[30.995260214720254,-29.771415023466862],[30.99516961167333,-29.771698643974172],[30.994701182980371,-29.771509323955765],[30.994178305679547,-29.771004316323403],[30.993732728644282,-29.770377893751153],[30.993247757164841,-29.76969607715186],[30.992780747322925,-29.768745209230662],[30.992321220465573,-29.767441938547645],[30.991976526921846,-29.767169811998162],[30.991500485641026,-29.767255710506372],[30.99086027800379,-29.767513452533379],[30.990645197143245,-29.767600041223435],[30.989694457879406,-29.7669940054855],[30.989465695566999,-29.766520193145684],[30.989234826759024,-29.76635887334708],[30.989050002683367,-29.765960751795017],[30.989556839265941,-29.764014844796392],[30.98902716329539,-29.763820118140721],[30.988634593165408,-29.763618728135839],[30.986450529768121,-29.763341055385624],[30.985516993874477,-29.7638197876223],[30.984778006493478,-29.763900344461835],[30.985112809649852,-29.763242561122428],[30.98625484935874,-29.762845937820689],[30.99017811065729,-29.76025411649092],[30.991201977409411,-29.759577678855734],[30.991950952930296,-29.758406776864224],[30.992541950587011,-29.756917386515937],[30.992689729489346,-29.756101075158718],[30.992772737410579,-29.755462099254508],[30.993747594205399,-29.755268923631441],[30.99427379796558,-29.75424010281062],[30.996098003065541,-29.752923535552771],[30.996625268922884,-29.752839565895087],[30.997456585896863,-29.75283958899729],[30.998195460950406,-29.753645654135099],[30.997860150456539,-29.754787093210243],[30.997868352081937,-29.755016235744481],[30.997881989763627,-29.75539725215469],[30.997769857045903,-29.755789589668659],[30.997942190624016,-29.75599009203297],[30.998155559404438,-29.756104666360613],[30.998354228151605,-29.756211346549286],[30.998450989073611,-29.756577276250386],[30.998688978353215,-29.756784939068545],[30.999391744949374,-29.756990405432187],[30.999632740694796,-29.757035569480447],[30.999805080278954,-29.757150141009582],[30.999952800102765,-29.757529658108048],[31.000149761166476,-29.757744478944669],[31.000447110877303,-29.758068789031739],[31.000717310003726,-29.758262864002809],[31.002144222629614,-29.758723132238718],[31.002875096145583,-29.759233139922252]]]}},
{"type":"Feature","properties":{"sde_LDR_Mi":0.0,"CAT_NAME":"Red Hill 3","MAJ_CAT":"Umhlangane River","Shape_STAr":673818.92967099999,"Shape_STLe":3277.5953691499999},"geometry":{"type":"Polygon","coordinates":[[[31.026638294840211,-29.733514281520712],[31.026975722828432,-29.733430043798631],[31.026623910634964,-29.734025806367914],[31.026678732352249,-29.734491242261061],[31.02737634952372,-29.73525491008942],[31.027951566693364,-29.735884577496645],[31.028719420466913,-29.73736797350848],[31.029660979448217,-29.738440937853106],[31.030659239056714,-29.738333299612353],[31.031124152385598,-29.738189976749318],[31.031427432340447,-29.738202461801148],[31.031230331772278,-29.73933287465157],[31.030591807644598,-29.740044892705235],[31.030287922934196,-29.740505047226822],[31.029574060873188,-29.740607508132918],[31.027884992897533,-29.740765923520925],[31.027288480794756,-29.74097064858211],[31.026638339875028,-29.741129002970531],[31.026249607153233,-29.741333769764605],[31.02489020194291,-29.741535557737173],[31.024677826478939,-29.741775741441565],[31.024554899592523,-29.741701698990752],[31.024385070302042,-29.741305786763064],[31.023787220187653,-29.740632906997799],[31.022561586546555,-29.74035859814861],[31.022391729156986,-29.739781446035391],[31.022483979393794,-29.739499336176156],[31.023369588196527,-29.739173518985254],[31.023129948693292,-29.73750437067719],[31.022878921459156,-29.73634409684021],[31.023153459159737,-29.735775351480171],[31.023769168823833,-29.735103794960992],[31.025022297253976,-29.73464277892343],[31.026638294840211,-29.733514281520712]]]}},
{"type":"Feature","properties":{"sde_LDR_Mi":0.0,"CAT_NAME":"Red Hill 5","MAJ_CAT":"Umhlangane River","Shape_STAr":886302.87409900001,"Shape_STLe":4423.9384431},"geometry":{"type":"Polygon","coordinates":[[[31.025407049516737,-29.744066640816424],[31.026553828974709,-29.745459750514001],[31.028560132672389,-29.745726104826147],[31.028472620671714,-29.74667921282655],[31.029121479336201,-29.748022692867231],[31.029170834359583,-29.748557186751547],[31.028932023715118,-29.748930984449331],[31.028835901178098,-29.749391084031956],[31.028310646046933,-29.749476804587676],[31.027906683561365,-29.749668407197987],[31.026128995335355,-29.74987624481669],[31.025387819559409,-29.750600332870029],[31.023433156194379,-29.750480160219752],[31.023340710662353,-29.750379500185574],[31.023176500952353,-29.749229508097873],[31.022486058324503,-29.748404996067237],[31.021879767109457,-29.747534459379455],[31.021677577514133,-29.747115727169948],[31.021323299967424,-29.74659011715525],[31.020722020301157,-29.746410596745534],[31.01985807336461,-29.746853845165266],[31.019599370330457,-29.746571969338774],[31.016667044100565,-29.746411138921026],[31.014495054743431,-29.745769275739892],[31.014120662410985,-29.74558846914103],[31.014048762702362,-29.745249658179247],[31.013875200972027,-29.744931505316472],[31.013868906860857,-29.744583124710783],[31.013339021207603,-29.74387355155239],[31.013228552718914,-29.743599197640108],[31.01336557619598,-29.743686334141056],[31.013540294942498,-29.743676910351091],[31.013786803980327,-29.743663614019134],[31.013921006920551,-29.743701613245801],[31.014120166533758,-29.743758004487699],[31.01439250664712,-29.743835115905263],[31.014911902532123,-29.744134566353591],[31.016062286777327,-29.742962497701711],[31.01646236230313,-29.742404939759304],[31.016685622999258,-29.742237028022078],[31.016882784846896,-29.741106645376572],[31.017197101950387,-29.740870250815338],[31.017710711196735,-29.740593054257172],[31.021021662081559,-29.740366332211639],[31.022074191067784,-29.739867020033756],[31.022391729156986,-29.739781446035391],[31.022561586546555,-29.74035859814861],[31.023787220187653,-29.740632906997799],[31.024385070302049,-29.741305786763064],[31.024554899592523,-29.741701698990752],[31.024677826478939,-29.741775741441565],[31.024774385014986,-29.743142532342663],[31.025205581092003,-29.743672901883006],[31.025407049516737,-29.744066640816424]]]}},
{"type":"Feature","properties":{"sde_LDR_Mi":0.0,"CAT_NAME":"Red Hill 2","MAJ_CAT":"Umhlangane River","Shape_STAr":1986838.34194,"Shape_STLe":6868.7046538100003},"geometry":{"type":"Polygon","coordinates":[[[31.010439574315512,-29.741160545939078],[31.012334084580118,-29.740600258252861],[31.011798921572286,-29.738909604763027],[31.012376124103568,-29.737135203894486],[31.013595044449584,-29.736093445465972],[31.013666848619184,-29.735771291545031],[31.014249161659336,-29.735110538906842],[31.014624588731497,-29.734754396434724],[31.015229295256521,-29.734377688441715],[31.01588440924241,-29.734349960856903],[31.01740153047826,-29.734012292718095],[31.018014733076793,-29.73363615055009],[31.018468389959612,-29.732967806328521],[31.018593448633013,-29.732139434138602],[31.018819180648435,-29.732700325635044],[31.028468674928984,-29.732290042947142],[31.029119681900937,-29.731802787983188],[31.028831230978451,-29.732707846022763],[31.027794937878348,-29.732796391365568],[31.02728458610202,-29.733352936279893],[31.026638294840211,-29.733514281520712],[31.025022297253976,-29.73464277892343],[31.023769168823833,-29.735103794960992],[31.023153459159737,-29.735775351480171],[31.022878921459156,-29.73634409684021],[31.023129948693292,-29.73750437067719],[31.023369588196527,-29.739173518985254],[31.022483979393794,-29.739499336176181],[31.022391729156986,-29.739781446035373],[31.022074191067784,-29.739867020033756],[31.021021662081559,-29.740366332211611],[31.017710711196735,-29.740593054257172],[31.017197101950387,-29.740870250815338],[31.017098329380907,-29.74054360484002],[31.016158189013378,-29.740705829504293],[31.015223065219985,-29.74054472603698],[31.014807521217715,-29.740616399138133],[31.014115226012986,-29.740497120442601],[31.013387221156322,-29.740900634715821],[31.011921538738928,-29.741157150044693],[31.011588061836342,-29.741191094987347],[31.010931041138971,-29.741173619870757],[31.010439574315512,-29.741160545939078]]]}},
{"type":"Feature","properties":{"sde_LDR_Mi":0.0,"CAT_NAME":"Red Hill 4","MAJ_CAT":"Umhlangane River","Shape_STAr":268330.88903800002,"Shape_STLe":2497.2885999599998},"geometry":{"type":"Polygon","coordinates":[[[31.01439250664712,-29.743835115905263],[31.014120166533758,-29.743758004487706],[31.013921006920551,-29.743701613245801],[31.013786803980327,-29.743663614019134],[31.013540294942498,-29.743676910351102],[31.01336557619598,-29.743686334141056],[31.013228552718914,-29.743599197640108],[31.012867971916343,-29.742703666401408],[31.012495856781857,-29.741970443788034],[31.011232799753735,-29.742080747994574],[31.010532458763624,-29.741531728982313],[31.011080727074834,-29.741335928034598],[31.011171167504958,-29.741233529858107],[31.011921538738928,-29.741157150044685],[31.013387221156322,-29.740900634715821],[31.014115226012986,-29.740497120442601],[31.014807521217715,-29.740616399138133],[31.015223065219985,-29.74054472603698],[31.016158189013378,-29.740705829504293],[31.017098329380907,-29.74054360484002],[31.017197101950387,-29.740870250815338],[31.016882784846896,-29.741106645376572],[31.016685622999258,-29.742237028022078],[31.01646236230313,-29.742404939759304],[31.016062286777327,-29.742962497701711],[31.014911902532123,-29.744134566353591],[31.01439250664712,-29.743835115905263]]]}},
{"type":"Feature","properties":{"sde_LDR_Mi":0.0,"CAT_NAME":"Red Hill 6","MAJ_CAT":"Umhlangane River","Shape_STAr":1007804.83069,"Shape_STLe":4933.0272301000005},"geometry":{"type":"Polygon","coordinates":[[[31.019599370330457,-29.746571969338774],[31.01985807336461,-29.746853845165266],[31.020722020301157,-29.746410596745495],[31.021323299967424,-29.74659011715525],[31.021677577514133,-29.747115727169948],[31.021879767109457,-29.747534459379455],[31.022486058324503,-29.748404996067237],[31.023176500952353,-29.749229508097873],[31.023340710662353,-29.750379500185574],[31.023433156194379,-29.750480160219752],[31.023340754206277,-29.750580852923164],[31.022860890345513,-29.750757472629843],[31.021863260775621,-29.751286456921619],[31.021262891660662,-29.751669230109762],[31.020077830174653,-29.752297554005985],[31.019900833831343,-29.752838129471026],[31.019165790820207,-29.752922131924958],[31.018405754125464,-29.753165807858778],[31.017407053685318,-29.753095933820365],[31.016749332707963,-29.753142113244536],[31.015633665929897,-29.752784734113099],[31.015232584237591,-29.752378643805404],[31.014178042340216,-29.752210974008943],[31.012651873064438,-29.751070834884612],[31.011440452644329,-29.751155915381709],[31.010756671872073,-29.751025790267196],[31.010956050473563,-29.750573090190265],[31.011825828473409,-29.750455244383765],[31.013201718124684,-29.749974933468774],[31.012972212675365,-29.749499068581002],[31.013025251946818,-29.749128470172959],[31.01320896888236,-29.748598187203125],[31.013555942109154,-29.747831340516438],[31.013980528514278,-29.746672979396251],[31.014081198388013,-29.745875652451865],[31.014168635963838,-29.745814532256354],[31.014120662410985,-29.74558846914103],[31.014495054743431,-29.745769275739892],[31.016667044100565,-29.746411138921026],[31.019599370330457,-29.746571969338774]]]}},
{"type":"Feature","properties":{"sde_LDR_Mi":0.0,"CAT_NAME":"Avoca 1","MAJ_CAT":"Umhlangane River","Shape_STAr":1023344.62499,"Shape_STLe":5301.1642602600004},"geometry":{"type":"Polygon","coordinates":[[[31.010756671872073,-29.751025790267196],[31.011440452644329,-29.751155915381709],[31.012651873064438,-29.751070834884612],[31.014178042340216,-29.752210974008943],[31.015232584237591,-29.752378643805404],[31.015633665929897,-29.752784734113099],[31.016749332707963,-29.753142113244536],[31.017407053685318,-29.753095933820365],[31.018405754125464,-29.753165807858778],[31.019165790820207,-29.752922131924958],[31.019900833831343,-29.752838129471026],[31.020002783452046,-29.753474648914541],[31.020626290834969,-29.753997152058041],[31.016484487318468,-29.756893991825919],[31.019794768359709,-29.758254070385131],[31.019658124188719,-29.758946291357212],[31.017852536554724,-29.758445298624274],[31.015746109367669,-29.7583023521751],[31.014569872652974,-29.758755997688098],[31.014279570440941,-29.759036755597212],[31.013776882699322,-29.758545986777591],[31.012627686284851,-29.758312808924401],[31.012114181674363,-29.758556337263599],[31.011686898684616,-29.758727515763542],[31.01114881240435,-29.759253136809772],[31.009061474547405,-29.759375591566414],[31.00878239419135,-29.759452351676472],[31.00837548117417,-29.759574706603313],[31.008160067667841,-29.75978059004245],[31.007777089103048,-29.759899958021837],[31.007151336352109,-29.760219240954779],[31.006805970607875,-29.760347554944357],[31.005735001274001,-29.760956463588688],[31.005417671255163,-29.76107582185498],[31.005104771628496,-29.761116195820133],[31.00473377118777,-29.761405239980988],[31.004427386512205,-29.76164394035213],[31.003880263676372,-29.761973349389613],[31.003601226717382,-29.762059285588169],[31.003338599789668,-29.762035423502414],[31.003026727452649,-29.761906538542377],[31.002780514636832,-29.76186357979153],[31.002605898657805,-29.761865779687284],[31.002945298808129,-29.761074036516469],[31.002862704083917,-29.760878014444945],[31.002807815292496,-29.760666211863832],[31.002718897369391,-29.760323097133718],[31.002718891247877,-29.760096341814108],[31.002768125833196,-29.759846909932389],[31.002768120978622,-29.75967027946086],[31.002822829311491,-29.759522290608757],[31.002851663668178,-29.759393815185387],[31.002875096145583,-29.759233139922252],[31.002886989529756,-29.759073373301643],[31.003040176939102,-29.758853775203317],[31.003301169130388,-29.758639524905501],[31.003654046730468,-29.758245677337701],[31.004244928635583,-29.758138249250997],[31.004883076763889,-29.758022224481095],[31.005631848898773,-29.757780162644501],[31.007067977322716,-29.757106988171692],[31.007732687355048,-29.756720273307341],[31.008331722305734,-29.756125898974616],[31.008676382764705,-29.755939698652529],[31.00899640630271,-29.755574481625352],[31.008889649266138,-29.754758169072044],[31.008853855101496,-29.754484467704351],[31.008695268807013,-29.753864073132483],[31.008771054347186,-29.752738621126973],[31.00906874513765,-29.752062729503535],[31.010456537049699,-29.751851904837448],[31.010548831746558,-29.751569894011602],[31.010756671872073,-29.751025790267196]]]}},
{"type":"Feature","properties":{"sde_LDR_Mi":0.0,"CAT_NAME":"Avoca 4","MAJ_CAT":"Umhlangane River","Shape_STAr":2271027.2640200001,"Shape_STLe":6799.6687171200001},"geometry":{"type":"Polygon","coordinates":[[[31.002605898657805,-29.761865779687284],[31.002780514636832,-29.76186357979153],[31.003026727452649,-29.761906538542377],[31.003338599789668,-29.762035423502414],[31.003601226717382,-29.762059285588169],[31.003880263676372,-29.761973349389667],[31.004427386512205,-29.761643940352137],[31.004733771187755,-29.761405239981002],[31.005104771628496,-29.761116195820133],[31.005417671255163,-29.76107582185502],[31.005735001274001,-29.760956463588688],[31.006805970607875,-29.760347554944357],[31.007151336352109,-29.760219240954779],[31.007777089103048,-29.759899958021837],[31.008160067667834,-29.759780590042507],[31.008375481174163,-29.75957470660337],[31.00878239419135,-29.759452351676472],[31.009061474547405,-29.759375591566414],[31.01114881240435,-29.759253136809772],[31.011686898684616,-29.758727515763542],[31.012114181674363,-29.758556337263599],[31.012627686284851,-29.758312808924401],[31.013776882699322,-29.758545986777591],[31.014519726525396,-29.759271215111486],[31.012045820432821,-29.76108027674432],[31.012001858959074,-29.761973170630668],[31.011761445359937,-29.762226013159747],[31.010908006229837,-29.763123559627893],[31.009901442327891,-29.764956775464629],[31.009879664853067,-29.76606429691644],[31.00858852633263,-29.767916618065993],[31.00545880106586,-29.76948258739429],[31.004933510069506,-29.769482608030167],[31.004101816440048,-29.769902729899712],[31.003629849003378,-29.770639003626957],[31.003248331454049,-29.770522347195485],[31.003133687733378,-29.770453540782604],[31.002864460548516,-29.770379179675473],[31.00266719706952,-29.770346325463908],[31.00237275243077,-29.770279016725173],[31.002110007255801,-29.770481647134872],[31.001984742451988,-29.770507678274264],[31.001850472887071,-29.770634107635377],[31.001415716837844,-29.770985534707055],[31.001117333232575,-29.771266486548761],[31.000650837674026,-29.771292515255659],[31.00058997652707,-29.771320611521435],[31.00046471132028,-29.771346641217988],[31.00037387392646,-29.77138857437717],[31.000325702054802,-29.77157719483851],[31.00031207742683,-29.770276816591686],[31.000228945415291,-29.770239299817355],[31.00007757921562,-29.770410382020557],[30.999852563735736,-29.770465045718279],[30.999750511757608,-29.770451887977021],[30.999634333394631,-29.770527028946599],[30.999471065905045,-29.770505978058004],[30.999442702884181,-29.770538037890937],[30.999244617373119,-29.770470108209754],[30.999043109000397,-29.770339765139052],[30.998725264894592,-29.770228069552076],[30.998637126800443,-29.770181681971248],[30.997547404777944,-29.770158072807344],[30.996993057189858,-29.769694493834475],[30.996722833472358,-29.769654435477761],[30.996428130078158,-29.76941338549095],[30.996748976945621,-29.768408257544284],[30.997365683004258,-29.767992946012185],[30.997546749032825,-29.7677883532048],[30.998374909199146,-29.767230601263972],[30.999031765469773,-29.76583071527412],[30.999742657776572,-29.765351981378277],[30.999827562530573,-29.765063399339244],[31.00069699003307,-29.764189907104882],[31.000909313558768,-29.763695116865449],[31.001917397412345,-29.763193116285958],[31.002114051854814,-29.762524773802376],[31.002605898657805,-29.761865779687284]]]}},
{"type":"Feature","properties":{"sde_LDR_Mi":0.0,"CAT_NAME":"Avoca 5","MAJ_CAT":"Umhlangane River","Shape_STAr":245157.85532500001,"Shape_STLe":2615.1010421400001},"geometry":{"type":"Polygon","coordinates":[[[30.991928735024548,-29.77267922619313],[30.994045447180547,-29.772531240959268],[30.994606979959407,-29.771653933349143],[30.99516961167333,-29.771698643974172],[30.995260214720254,-29.771415023466862],[30.995494861163422,-29.771075660658674],[30.995857033347679,-29.770303649127008],[30.996389914070253,-29.769533095518675],[30.996428130078151,-29.76941338549095],[30.996722833472358,-29.769654435477761],[30.996993057189858,-29.769694493834475],[30.997547404777929,-29.770158072807344],[30.998637126800435,-29.770181681971263],[30.998725264894592,-29.7702280695521],[30.999043109000397,-29.770339765139052],[30.999244617373119,-29.770470108209754],[30.999442702884163,-29.770538037890969],[30.999471065905016,-29.770505978058004],[30.999634333394631,-29.770527028946621],[30.999750511757608,-29.770451887977021],[30.999852563735736,-29.770465045718279],[31.00007757921562,-29.770410382020557],[31.000228945415291,-29.770239299817355],[31.00031207742683,-29.770276816591686],[31.000325702054802,-29.77157719483851],[31.000179696594344,-29.77172503550101],[30.999998107673662,-29.771699885103388],[30.999750678585084,-29.771564682442495],[30.999592236717248,-29.771456426284637],[30.998431219369973,-29.771481817118413],[30.998331184425197,-29.771941403999833],[30.998319856308058,-29.772064320148456],[30.998326086439718,-29.772131978269879],[30.998323563905167,-29.772159360628756],[30.998360408323837,-29.772366636574723],[30.998349269462665,-29.772487479622754],[30.998385709296276,-29.772593063707276],[30.99844774692394,-29.772740458255857],[30.998414006113219,-29.772948782499949],[30.998201854323472,-29.77310726077555],[30.998028348682926,-29.77314164483586],[30.997982396144636,-29.77321349618186],[30.997953674641799,-29.773269633556694],[30.997920348454898,-29.773321747347772],[30.997891621516896,-29.773486138636759],[30.997805813619692,-29.773591707327849],[30.997745753601556,-29.773765715674141],[30.997628702322213,-29.773928736827248],[30.997053984386724,-29.77440626561593],[30.996795514825831,-29.77443210565826],[30.99657400634624,-29.774553131799802],[30.996402506798496,-29.774676874352011],[30.996228884341374,-29.774704496373044],[30.996120995826143,-29.774837230090402],[30.996072956598304,-29.77493113418528],[30.995954170061822,-29.775097162382373],[30.995854925337156,-29.775291168866612],[30.995786652237548,-29.775342479911878],[30.995697965406677,-29.775553124605722],[30.995159562884592,-29.774898896934317],[30.994153339641368,-29.774507144714065],[30.991843655728978,-29.774418583836681],[30.991773965749896,-29.773391432967493],[30.991635945073448,-29.773149205712706],[30.991758902414496,-29.773075151170683],[30.991928735024548,-29.77267922619313]]]}},
{"type":"Feature","properties":{"sde_LDR_Mi":0.0,"CAT_NAME":"Avoca 7","MAJ_CAT":"Umhlangane River","Shape_STAr":783231.22892699996,"Shape_STLe":4624.8260905099996},"geometry":{"type":"Polygon","coordinates":[[[30.996108766233576,-29.776052292607517],[30.997208005116686,-29.776313335670803],[30.997983320991935,-29.776497457501822],[30.999329567228614,-29.777468972939502],[31.000713185288735,-29.777328245760373],[31.000561620530451,-29.779013819452071],[30.999297504577047,-29.781133377923908],[30.998837803387019,-29.782723043595336],[30.999262626955883,-29.783649737673464],[30.998953249404412,-29.78427208687939],[30.996605087674119,-29.784063276599817],[30.994233609942338,-29.784445653205665],[30.994035205109011,-29.785035351162254],[30.993921645513701,-29.785117616594018],[30.993094630348597,-29.785127861169119],[30.992799856286425,-29.783903034024938],[30.99221235762375,-29.782416032851412],[30.992270878004181,-29.781734650298816],[30.992698075294957,-29.78032255418514],[30.991972343635783,-29.780278261734068],[30.99098102453544,-29.780312458939619],[30.990874737740736,-29.780361505877483],[30.990817321519447,-29.780467611353131],[30.990735735288734,-29.780571017741991],[30.990693190001508,-29.780765297495741],[30.990124491125886,-29.781286686523149],[30.989942639617524,-29.781361533370983],[30.989885394035998,-29.781359548829318],[30.989824440026187,-29.78138767527329],[30.989648173192716,-29.781436339625419],[30.989373997854486,-29.781400649461766],[30.989359078511747,-29.781386601195628],[30.989355166120632,-29.781300249897459],[30.989279765007861,-29.781239293195146],[30.989205275029711,-29.78116914111218],[30.989173007523938,-29.780840384235859],[30.989263682403742,-29.780690943854598],[30.989190573210081,-29.780324409642727],[30.989235134175448,-29.780250960937718],[30.989265012743541,-29.779979300392732],[30.989297228623034,-29.779899144224121],[30.989327086083989,-29.779784930635959],[30.989236731526496,-29.779635929286236],[30.98920150983945,-29.779538858101137],[30.989140990406309,-29.779439053179836],[30.989111160296357,-29.779356829670725],[30.989078962005763,-29.77930373033292],[30.989049128007473,-29.77924857071703],[30.989016929784203,-29.779195471363238],[30.988958540526397,-29.779034521038604],[30.988768791103382,-29.778843624201727],[30.988685961480616,-29.778731702456405],[30.988459621674814,-29.778548709204863],[30.988418828939796,-29.778436263202678],[30.988299355212163,-29.778284761532269],[30.988305729280636,-29.778144799263945],[30.988269178284853,-29.777930774594349],[30.988308516283293,-29.777832910451718],[30.988272549880119,-29.777652596638049],[30.988274586100552,-29.777607875502099],[30.988459941578267,-29.777409238150472],[30.988489794556411,-29.777327020572809],[30.988556450109964,-29.777185506427521],[30.988551829912879,-29.777083512947108],[30.988615113282766,-29.777003304565266],[30.988646853381898,-29.776800896245625],[30.988640269062003,-29.776655527249694],[30.98877029486199,-29.776516180817403],[30.988810689198129,-29.776441532025114],[30.988698570141811,-29.776350880910126],[30.988713262673837,-29.776028520185481],[30.988706520481266,-29.775879670741904],[30.98872156228121,-29.775549530047048],[30.988585165933269,-29.775439255405875],[30.988520321584105,-29.77526049166584],[30.988522319289437,-29.77521660136907],[30.988518643038883,-29.775135411076857],[30.988524196562174,-29.7750136265973],[30.988519839512403,-29.774917573637033],[30.988584398515091,-29.774811173787356],[30.988680076984252,-29.774596837507836],[30.988675667218015,-29.77449942593292],[30.9886804534089,-29.774394392137179],[30.988739556104758,-29.774296972450099],[30.988769411984205,-29.774187690840797],[30.988832647853428,-29.774107538247435],[30.988862495740523,-29.774050376330724],[30.988718368908149,-29.773991019230362],[30.988523603700333,-29.773937205693869],[30.988472288093817,-29.773516025108382],[30.989254458147588,-29.773616928475803],[30.989855708093224,-29.773228082577226],[30.99163594507344,-29.773149205712681],[30.991773965749896,-29.773391432967482],[30.991843655728978,-29.774418583836681],[30.994153339641368,-29.774507144714065],[30.995159562884599,-29.774898896934296],[30.995697965406677,-29.775553124605722],[30.996108766233576,-29.776052292607517]]]}},
{"type":"Feature","properties":{"sde_LDR_Mi":0.0,"CAT_NAME":"Avoca 8","MAJ_CAT":"Umhlangane River","Shape_STAr":397058.09103700001,"Shape_STLe":2798.6871279000002},"geometry":{"type":"Polygon","coordinates":[[[30.999262626955883,-29.783649737673464],[30.998837803387019,-29.782723043595336],[30.999297504577047,-29.781133377923908],[31.000561620530451,-29.779013819452071],[31.000713185288735,-29.777328245760373],[31.001497701219044,-29.777864184669379],[31.002252551743172,-29.778598482359186],[31.002580908183806,-29.779371829146669],[31.002860028191837,-29.780488888383093],[31.002642539760618,-29.782412490363075],[31.002123490996969,-29.782479945411971],[31.0006874564152,-29.783222007559608],[30.999373665246104,-29.78342636731692],[30.999262626955883,-29.783649737673464]]]}},
{"type":"Feature","properties":{"sde_LDR_Mi":0.0,"CAT_NAME":"Verulam 1","MAJ_CAT":"Ohlanga River","Shape_STAr":1188398.3844699999,"Shape_STLe":5759.4803087600003},"geometry":{"type":"Polygon","coordinates":[[[31.008782912647924,-29.668251096913764],[31.008671357067865,-29.66833500198058],[31.008576314302285,-29.666927042265208],[31.007891315072037,-29.666447954355167],[31.006894696733358,-29.66625972672044],[31.006710083349308,-29.665877048676016],[31.006306366931369,-29.665277234454241],[31.006025460126672,-29.664419673932137],[31.005336961831507,-29.663596497897554],[31.003895387344787,-29.663439114584129],[31.003687761064551,-29.663257789153214],[31.003589733036954,-29.663161984826523],[31.003430391099407,-29.660827870428385],[31.001294022047716,-29.66063339128247],[31.00068284575563,-29.659353890372518],[31.000463561007013,-29.659001335101834],[31.000267621903333,-29.658084492897824],[30.99963302141618,-29.657369273316377],[30.999276787640259,-29.656691312907373],[30.999910558643261,-29.655672717705624],[30.999825869590392,-29.654432098257125],[30.998699237983168,-29.653980472509424],[30.996836112643525,-29.652558563772807],[30.996928367746897,-29.651913902070337],[30.997366630330376,-29.651389954031927],[30.997643663136046,-29.650815841414918],[30.998796824930057,-29.649556301435538],[30.99891231384483,-29.648750425306215],[30.999189614269284,-29.64887086406214],[30.999950264438272,-29.648931855348433],[31.000275073269979,-29.649373452935468],[31.000455913045474,-29.649759477053649],[31.001158919804542,-29.650233476635506],[31.001701561429524,-29.650847558321832],[31.002847884385332,-29.651017689145473],[31.003985347094517,-29.651754260764221],[31.00505008883567,-29.651912195055687],[31.005652465908934,-29.652593828078434],[31.007294627838714,-29.65359106656156],[31.008047328686484,-29.654553155071259],[31.008143712730622,-29.657552037733442],[31.008511875621171,-29.658128301512733],[31.008826160953362,-29.65839561430921],[31.008644009429275,-29.659562880373265],[31.008745360615357,-29.660523492147366],[31.008351613623155,-29.6611788140385],[31.008755919963157,-29.661482991712422],[31.008892034612884,-29.662647852466897],[31.009066845035672,-29.664143829334837],[31.010236148284314,-29.665336017540618],[31.01053993639648,-29.666340164974486],[31.009056793601545,-29.667456207104234],[31.008782912647924,-29.668251096913764]]]}},
{"type":"Feature","properties":{"sde_LDR_Mi":0.0,"CAT_NAME":"Cornubia 3","MAJ_CAT":"Ohlanga River","Shape_STAr":2711317.2657900001,"Shape_STLe":8501.2395119899993},"geometry":{"type":"Polygon","coordinates":[[[31.048683961553259,-29.666081943115355],[31.048626070144344,-29.666424864478536],[31.048745900296836,-29.666875616256302],[31.04899194539119,-29.66729683803738],[31.049123385671397,-29.667812366502528],[31.049702979024929,-29.668155868480454],[31.050020321247747,-29.668757255646039],[31.051015610426997,-29.669587528097342],[31.051923198396668,-29.669921345886635],[31.052568951379484,-29.671305510684778],[31.05352447548433,-29.672132549618507],[31.053409127815733,-29.672213246085473],[31.0531824038423,-29.672460791037231],[31.053249693188903,-29.672931676306238],[31.052749863736892,-29.673477904938125],[31.052806251115985,-29.673602139933845],[31.05280635963452,-29.673809839719155],[31.052717328950912,-29.674114935318578],[31.05285132789334,-29.674523791540096],[31.052880523662367,-29.674858227367643],[31.052991568688562,-29.675729807476074],[31.052994694822718,-29.675754343934805],[31.053047683732142,-29.675892951628381],[31.053050503064124,-29.675900326340631],[31.052580450905577,-29.67586043781181],[31.051980066493034,-29.675115240967948],[31.045424204155637,-29.674956403621341],[31.044919977954237,-29.675681976225714],[31.043807907400634,-29.676460250350988],[31.04350788653457,-29.67690798500692],[31.04263667567049,-29.677858840245943],[31.042406054019061,-29.678020213985526],[31.042106235476677,-29.678483642609713],[31.04201019744421,-29.678581102830144],[31.041787221841762,-29.678748968488769],[31.041071783417852,-29.67947459340445],[31.040528551943165,-29.678887108671855],[31.040607297002001,-29.678027431600562],[31.038029470879302,-29.677855598255093],[31.037690508800825,-29.676554625808411],[31.037978083098832,-29.676584170753387],[31.038178228706236,-29.676527224029996],[31.038262815603243,-29.676500335583647],[31.038366622529672,-29.676453294835277],[31.0383823149261,-29.676414902249846],[31.038695304363124,-29.676141913495069],[31.038868471897192,-29.675966724136433],[31.039032372251878,-29.675708889129329],[31.039218143535223,-29.675460594833282],[31.039250867543668,-29.675264856803931],[31.039283576581436,-29.675030929187958],[31.039403730467946,-29.674744463560526],[31.039504176021929,-29.674434372915375],[31.039439110982212,-29.674080301471051],[31.039504342038931,-29.673931429093113],[31.039491427177794,-29.673557043838372],[31.039569711634229,-29.673374337102398],[31.039667772032804,-29.673293871281714],[31.040026129271244,-29.672999810909133],[31.040169598481231,-29.672817084101752],[31.040251710945746,-29.672657746872648],[31.040442811386683,-29.672286918986867],[31.040521818972135,-29.672133604928593],[31.040757609322785,-29.671878677616291],[31.041226032207636,-29.671438738016167],[31.041503778040223,-29.671251143986932],[31.041720067437037,-29.671105057740267],[31.042034491506769,-29.670892688195675],[31.042373485530771,-29.670768536217508],[31.042881946860494,-29.670711988620543],[31.043090579539747,-29.670574343842457],[31.043148247222035,-29.670455583284149],[31.043377553516699,-29.669983347934906],[31.043521059764149,-29.669617933024455],[31.043690717109182,-29.668993143479298],[31.043821155417071,-29.668754032833874],[31.043881708493394,-29.668174514362686],[31.043883371941298,-29.668158599066206],[31.043938710994809,-29.667921767580058],[31.043938862442573,-29.667364695453326],[31.044017165077616,-29.667044408738001],[31.043965157049392,-29.666566290682127],[31.044056473428363,-29.666340723972173],[31.044043511824196,-29.666054298857915],[31.044120723273295,-29.66592797279279],[31.044317327341236,-29.665885055287823],[31.044721445958231,-29.665884919557641],[31.045034338548795,-29.665828429518868],[31.045490590708752,-29.665918488283999],[31.045933820179027,-29.665940889069446],[31.046926299817521,-29.665955069773656],[31.047658862388367,-29.66590580470168],[31.047855469170649,-29.665787652346861],[31.048074053074764,-29.665656292003462],[31.048683961553259,-29.666081943115355]]]}},
{"type":"Feature","properties":{"sde_LDR_Mi":0.0,"CAT_NAME":"Avoca 6","MAJ_CAT":"Umhlangane River","Shape_STAr":350583.81935499999,"Shape_STLe":3528.2575713699998},"geometry":{"type":"Polygon","coordinates":[[[30.999329567228614,-29.777468972939502],[30.997983320991935,-29.776497457501822],[30.997208005116686,-29.776313335670803],[30.996108766233576,-29.776052292607517],[30.995697965406677,-29.775553124605722],[30.995786652237548,-29.775342479911878],[30.995854925337156,-29.775291168866612],[30.995954170061822,-29.775097162382373],[30.996072956598304,-29.774931134185255],[30.996120995826143,-29.774837230090402],[30.996228884341374,-29.774704496373044],[30.996402506798496,-29.774676874352011],[30.99657400634624,-29.774553131799802],[30.996795514825831,-29.77443210565826],[30.997053984386724,-29.77440626561593],[30.997628702322213,-29.773928736827248],[30.997745753601556,-29.773765715674141],[30.997805813619706,-29.773591707327835],[30.997891621516896,-29.773486138636759],[30.997920348454915,-29.773321747347772],[30.997953674641799,-29.773269633556659],[30.997982396144636,-29.77321349618186],[30.998028348682926,-29.77314164483586],[30.998201854323472,-29.77310726077555],[30.998414006113247,-29.772948782499949],[30.99844774692394,-29.772740458255857],[30.998385709296283,-29.772593063707252],[30.998349269462665,-29.772487479622754],[30.998360408323837,-29.772366636574723],[30.999560216964809,-29.772784030651913],[31.000167605506732,-29.773328242986743],[31.00037070199426,-29.773783857276591],[31.000386646181983,-29.774380526930454],[31.000361578681222,-29.775614198873669],[31.000522248302516,-29.776656489950145],[31.000807321531582,-29.776896085867925],[31.000733867475727,-29.777310203035711],[31.000295726346415,-29.777401213477553],[30.99961453799585,-29.777448995493835],[30.999329567228614,-29.777468972939502]]]}},
{"type":"Feature","properties":{"sde_LDR_Mi":0.0,"CAT_NAME":"Red Hill 1","MAJ_CAT":"Umhlangane River","Shape_STAr":1986838.34194,"Shape_STLe":6868.7046538100003},"geometry":{"type":"Polygon","coordinates":[[[31.018593448633013,-29.732139434138602],[31.018468389959612,-29.732967806328521],[31.018014733076793,-29.73363615055009],[31.01740153047826,-29.734012292718095],[31.01588440924241,-29.734349960856903],[31.015229295256521,-29.734377688441715],[31.014624588731497,-29.734754396434724],[31.014249161659336,-29.735110538906842],[31.013666848619184,-29.735771291545031],[31.013595044449584,-29.736093445465972],[31.012376124103568,-29.737135203894486],[31.011798921572286,-29.738909604763027],[31.012334084580118,-29.740600258252861],[31.010439574315512,-29.741160545939078],[31.009104776389332,-29.740511406315534],[31.008628686630868,-29.739934037665243],[31.008294973506686,-29.737933601426381],[31.008320005142604,-29.736902147099226],[31.008732370519816,-29.735527571472186],[31.008819767569893,-29.734133611842392],[31.009221001470241,-29.733354659446775],[31.009831184567407,-29.732448613246678],[31.010015827254069,-29.730615207498317],[31.0108698923388,-29.730453845252068],[31.012093267889718,-29.729527017078926],[31.012416469502817,-29.729446337906602],[31.012527986131136,-29.72936242955128],[31.012678733748203,-29.728071367050255],[31.013154579453204,-29.727794420196506],[31.014949524135712,-29.729542640838257],[31.015058313105232,-29.730081174858906],[31.016227575775893,-29.73086871658678],[31.015783227433396,-29.731274544771278],[31.01629396602118,-29.731700518897636],[31.016699494177328,-29.731823421282268],[31.017431140504957,-29.732223134085558],[31.018593448633013,-29.732139434138602]]]}},
{"type":"Feature","properties":{"sde_LDR_Mi":0.0,"CAT_NAME":"Verulam 3","MAJ_CAT":"Ohlanga River","Shape_STAr":1321645.7152199999,"Shape_STLe":5776.3710497700004},"geometry":{"type":"Polygon","coordinates":[[[31.01592365717476,-29.654108859571405],[31.01626380615782,-29.656413151629657],[31.016154795058718,-29.65830361760186],[31.016920333081604,-29.66028945157036],[31.017970104480309,-29.662122478550572],[31.019151052393148,-29.663707236800828],[31.019814591510215,-29.665421153435254],[31.0196526553365,-29.665463307101611],[31.019651009057888,-29.665463735643812],[31.019145286166726,-29.665575470945104],[31.01876661149192,-29.665688919711435],[31.018052249772172,-29.665924638950106],[31.018040448570755,-29.665934769676127],[31.01768387890716,-29.666240864822122],[31.017475102628683,-29.666592727521945],[31.017370658042388,-29.666888193044137],[31.017250071477225,-29.667523210115828],[31.016879083810629,-29.66788591315445],[31.016452179177115,-29.668057099316467],[31.01556337665248,-29.668599563857988],[31.014673707668088,-29.668177457674464],[31.01427771334366,-29.667790481416823],[31.015838946435721,-29.667703080109025],[31.016246325365103,-29.667514757542662],[31.016673950302042,-29.667338430612038],[31.015950844899749,-29.666515133106859],[31.015734638661652,-29.665904704541873],[31.014800392831596,-29.665520199807847],[31.014169372049228,-29.664076482573517],[31.013969631816856,-29.663525565891721],[31.013678003288732,-29.66328959488532],[31.013229509662331,-29.661645931784207],[31.012707495807895,-29.66098353856674],[31.013553782905337,-29.659543015425488],[31.013848395708951,-29.65819446689207],[31.013990284442087,-29.657935326913112],[31.013531062350275,-29.657137007599022],[31.013554854341749,-29.656609161672371],[31.01291976933296,-29.6560952628822],[31.013164301361954,-29.655691530696167],[31.013029930167935,-29.653101928266508],[31.013237509010015,-29.652920573347227],[31.013410825883479,-29.653318967436039],[31.013701876596194,-29.653419189014627],[31.013902736360496,-29.653440650534034],[31.014402814661164,-29.653340345815955],[31.015659336932551,-29.654069342152624],[31.01592365717476,-29.654108859571405]]]}},
{"type":"Feature","properties":{"sde_LDR_Mi":0.0,"CAT_NAME":"Avoca 2","MAJ_CAT":"Umhlangane River","Shape_STAr":2248381.58666,"Shape_STLe":7623.4825010499999},"geometry":{"type":"Polygon","coordinates":[[[31.003301169130388,-29.758639524905501],[31.003040176939102,-29.758853775203317],[31.002886989529763,-29.75907337330165],[31.002875096145583,-29.75923313992222],[31.002144222629614,-29.758723132238718],[31.000717310003726,-29.758262864002809],[31.000447110877303,-29.758068789031739],[31.000149761166476,-29.757744478944677],[30.999952800102765,-29.757529658108048],[30.999805080278954,-29.757150141009582],[30.999632740694796,-29.757035569480447],[30.999391744949374,-29.756990405432187],[30.998688978353215,-29.756784939068545],[30.998450989073611,-29.756577276250418],[30.998354228151605,-29.756211346549286],[30.998155559404438,-29.756104666360613],[30.997942190624023,-29.755990092032992],[30.997769857045903,-29.755789589668659],[30.997881989763627,-29.75539725215469],[30.997868352081937,-29.755016235744481],[30.997860150456539,-29.754787093210243],[30.998195460950399,-29.753645654135099],[30.997456585896863,-29.75283958899729],[30.997593482638553,-29.752291732824215],[30.99747483623894,-29.751002054166086],[30.999236183758882,-29.749875963529039],[31.000573838217388,-29.7497568863662],[31.000697895926052,-29.74988255127797],[31.001578500387907,-29.749820748404083],[31.003206381188772,-29.748934170555913],[31.005555251157997,-29.748914327228711],[31.005976815197204,-29.748487339435275],[31.006382066552582,-29.748588365889784],[31.007131283588748,-29.74911194181017],[31.00731613703055,-29.749313291727503],[31.007986462828846,-29.749480522214249],[31.009001593408172,-29.750018501695934],[31.009602059837341,-29.750401252196426],[31.010956050473563,-29.750573090190265],[31.010756671872073,-29.751025790267196],[31.010548831746558,-29.751569894011602],[31.010456537049699,-29.751851904837448],[31.00906874513765,-29.752062729503535],[31.008771054347186,-29.752738621126973],[31.008695268807013,-29.753864073132483],[31.008853855101496,-29.754484467704351],[31.008889649266138,-29.754758169072044],[31.00899640630271,-29.755574481625352],[31.008676382764705,-29.755939698652529],[31.008331722305734,-29.756125898974616],[31.007732687355048,-29.756720273307341],[31.007067977322716,-29.757106988171692],[31.005631848898773,-29.757780162644501],[31.004883076763889,-29.758022224481095],[31.004244928635583,-29.758138249250997],[31.003654046730468,-29.758245677337701],[31.003301169130388,-29.758639524905501]]]}}
]
}
