{
"type": "FeatureCollection",
"name": "Phase7_Kloof_Catchments",
"crs": { "type": "name", "properties": { "name": "urn:ogc:def:crs:OGC::CRS84" } },
"features": [
{"type":"Feature","properties":{"sde_LDR_Mi":0.0,"CAT_NAME":"Kloof 1","MAJ_CAT":"Umgeni River","Shape_STAr":936203.73881500005,"Shape_STLe":4863.9844701700003},"geometry":{"type":"Polygon","coordinates":[[[30.841992263805196,-29.763444176288182],[30.84170202954558,-29.764085854045081],[30.842522808486535,-29.764974430948008],[30.842720935700029,-29.766404430626732],[30.843632939649659,-29.767020347049922],[30.843973760851604,-29.767514958103039],[30.844063873920419,-29.76779879603885],[30.843743424301962,-29.768426257136113],[30.843548302080176,-29.77025284775247],[30.843324131167357,-29.770783104178054],[30.842984878604504,-29.771761278019323],[30.841067373527157,-29.773706410051457],[30.840728728557849,-29.773960211874574],[30.840637022964703,-29.773496685711049],[30.839502644097895,-29.772158816524367],[30.83844633210764,-29.771418682818986],[30.837657179711872,-29.770962316136035],[30.836245799450989,-29.770797900653637],[30.836076664377572,-29.770401750969324],[30.835831019376123,-29.770253314811711],[30.835661886694464,-29.769857254786839],[30.834151933450254,-29.768419630585811],[30.833254953741516,-29.768329473481327],[30.833141557900447,-29.768247056240472],[30.83289267727972,-29.767503306716765],[30.832998919606567,-29.766606470155764],[30.832845661194202,-29.765275081571545],[30.831377050191051,-29.764207532908845],[30.827892684308662,-29.763862059138877],[30.827651073431614,-29.763607615355458],[30.830474197525959,-29.763535556592121],[30.830922024659863,-29.762992137832523],[30.833592462761573,-29.763146929499687],[30.834934797879779,-29.763673297616251],[30.836085160010665,-29.763873117372718],[30.836997631832357,-29.76242771177089],[30.840746962670433,-29.762354619455557],[30.841992263805196,-29.763444176288182]]]}},
{"type":"Feature","properties":{"sde_LDR_Mi":0.0,"CAT_NAME":"Kloof 2","MAJ_CAT":"Umgeni River","Shape_STAr":401680.04056200001,"Shape_STLe":3115.0491989500001},"geometry":{"type":"Polygon","coordinates":[[[30.83844633210764,-29.771418682818986],[30.838318608072615,-29.772261367386555],[30.836683919861468,-29.77350866643852],[30.836252444908258,-29.773675918142807],[30.835653453158997,-29.774280753717768],[30.83330194616731,-29.775483625169397],[30.83089069815944,-29.775721659652703],[30.830057265493721,-29.776125897018403],[30.829193126852086,-29.776401447693985],[30.827837304353849,-29.77630133686926],[30.828168861829646,-29.775865061114029],[30.828339652184937,-29.775288023351937],[30.828794385284571,-29.774777843692963],[30.829010622480975,-29.774047235726634],[30.828959368096392,-29.773846538672071],[30.829297337015941,-29.773401878382124],[30.829536996559025,-29.773240893122953],[30.830429169356567,-29.772212924404325],[30.831170192632666,-29.772134859393059],[30.831708947984833,-29.772061492018096],[30.83240040987355,-29.770955488834954],[30.833635112878962,-29.770787290308864],[30.833447529423538,-29.770052370733335],[30.833730401568044,-29.768958918719353],[30.833254953741516,-29.768329473481327],[30.834151933450254,-29.768419630585811],[30.835661886694464,-29.769857254786839],[30.835831019376123,-29.770253314811711],[30.836076664377572,-29.770401750969324],[30.836245799450989,-29.770797900653637],[30.837657179711872,-29.770962316136035],[30.83844633210764,-29.771418682818986]]]}},
{"type":"Feature","properties":{"sde_LDR_Mi":0.0,"CAT_NAME":"Kloof 3","MAJ_CAT":"Umgeni River","Shape_STAr":1765969.31348,"Shape_STLe":6512.0643474300005},"geometry":{"type":"Polygon","coordinates":[[[30.829297337015941,-29.773401878382124],[30.828959368096392,-29.773846538672071],[30.829010622480975,-29.774047235726634],[30.828794385284571,-29.774777843692963],[30.828339652184937,-29.775288023351937],[30.828168861829646,-29.775865061114029],[30.827837304353849,-29.77630133686926],[30.827161518664724,-29.777320463292806],[30.826275795682069,-29.777984055014493],[30.825977119376923,-29.779123116200029],[30.825239847522713,-29.780271783529162],[30.825429767607702,-29.781654434489049],[30.825804710571795,-29.782856548697374],[30.824910362424141,-29.784097921964761],[30.823568311770611,-29.785097370505873],[30.821889446438455,-29.78526297492963],[30.820683827137749,-29.787080548821699],[30.819656288314729,-29.787348865603892],[30.818988111739003,-29.788023350573877],[30.818113124930264,-29.788562678886183],[30.815884604096929,-29.788403317193971],[30.81523857691791,-29.788716610484823],[30.814113971005884,-29.788167260163739],[30.812146786472344,-29.788348662538272],[30.810967514256621,-29.789151552335024],[30.809217129512433,-29.788872158430905],[30.808274096565391,-29.788786886627811],[30.808800886729738,-29.788158077044585],[30.808997787451069,-29.787785524452133],[30.811476685864527,-29.787604454759055],[30.812665031358847,-29.785704251126219],[30.812503009654655,-29.783266799630521],[30.813387874801979,-29.782579305079757],[30.813361424099316,-29.782179994261934],[30.813593719241961,-29.781999452580035],[30.813817279775364,-29.779956109217483],[30.814834279326899,-29.779270841936462],[30.815885667280796,-29.779101104972096],[30.816499236124422,-29.778185123262055],[30.816927715321892,-29.777651853919828],[30.817606907605352,-29.776637836753636],[30.81816548614901,-29.776374025224875],[30.81859318434979,-29.776203488752291],[30.819373243707368,-29.774350185174857],[30.820602446178164,-29.773769560278922],[30.822120466900099,-29.773296678595671],[30.82275598884755,-29.773126411480401],[30.824062000732141,-29.772246180684775],[30.825973737205253,-29.772128218842845],[30.828605983898708,-29.772192501998386],[30.828744955580905,-29.77261487306302],[30.829214676123961,-29.77282297465571],[30.829297337015941,-29.773401878382124]]]}},
{"type":"Feature","properties":{"sde_LDR_Mi":0.0,"CAT_NAME":"Kloof 5","MAJ_CAT":"Umgeni River","Shape_STAr":3931689.89756,"Shape_STLe":11112.1602157},"geometry":{"type":"Polygon","coordinates":[[[30.853632813337345,-29.762369530466188],[30.853936756234781,-29.762467298372226],[30.855061060388486,-29.762647497039321],[30.85529166572395,-29.765091380450233],[30.855398723185871,-29.765631867521257],[30.855994049713356,-29.766518043002648],[30.856212486062407,-29.767187752613818],[30.856650459554018,-29.767712182658077],[30.856834527749026,-29.768276479646399],[30.857102495309345,-29.768887055170772],[30.856646872977056,-29.770271041515027],[30.855906686731927,-29.771076213714444],[30.855588480192338,-29.771524126010519],[30.854973869486596,-29.773346988862681],[30.854753660984525,-29.773880528277161],[30.854440521127117,-29.775047617142338],[30.853825912851761,-29.775646123660948],[30.853087484219579,-29.776054681774394],[30.852156175575427,-29.776961620696671],[30.850175696004783,-29.777139438757299],[30.849978964322965,-29.777512059332675],[30.849302768679198,-29.778354357951251],[30.84989353493744,-29.779305735547236],[30.849547443201274,-29.779859822111518],[30.849570378242134,-29.780204423446154],[30.849148681180438,-29.781225530545001],[30.849820360167985,-29.78230718741068],[30.849673650105913,-29.784408245007128],[30.849956201536692,-29.78494695320876],[30.850273670982403,-29.785032928625601],[30.849756811055091,-29.785767109280638],[30.849956147641603,-29.786214698107212],[30.850990887577051,-29.786799288713038],[30.850577839434344,-29.787477929855246],[30.850364500459182,-29.787871050500062],[30.849808448687636,-29.788319242911534],[30.849328096501939,-29.78910866862919],[30.848934687148983,-29.790187680880379],[30.847878570555235,-29.79056462091463],[30.845848139609572,-29.790844331797235],[30.845194701079674,-29.791917960036169],[30.84515842090271,-29.792689411921526],[30.845271362128535,-29.793550131564658],[30.843563923427109,-29.793738635997126],[30.843157301339268,-29.794164483000511],[30.841173061459305,-29.79435612265544],[30.840347726181484,-29.79551954093639],[30.840070525329622,-29.795719829743085],[30.839817953626415,-29.796743945979312],[30.839838124392141,-29.796763689993799],[30.839711022422826,-29.796921588436092],[30.839206642644658,-29.796618241325181],[30.838576038954098,-29.79612473239893],[30.837845795129496,-29.79560210933797],[30.837314756392427,-29.795195665175513],[30.837011369035725,-29.794702317339642],[30.83573900856744,-29.794374187240493],[30.834380689803488,-29.793423563838903],[30.83340304843302,-29.792520869342546],[30.832588800941071,-29.791523471716236],[30.831774248043899,-29.790715851694664],[30.831677635649239,-29.790670044128358],[30.832063914497958,-29.789694556791673],[30.832180034166768,-29.789726001722688],[30.832326636228554,-29.789572469807037],[30.833340928223539,-29.788937687744959],[30.833740607559005,-29.788902654349108],[30.834337880226709,-29.788956546559582],[30.834959130472008,-29.787028887665958],[30.835191944432776,-29.785459958029971],[30.836458669928515,-29.785296914192042],[30.836648225532446,-29.784736398584094],[30.837084656245807,-29.783847010537585],[30.837405786838239,-29.781682611688471],[30.839752929626499,-29.781456016034344],[30.839829880732463,-29.780806589547829],[30.838934291795368,-29.779483894517934],[30.839507541523542,-29.779267822626664],[30.839706834360118,-29.77758571895469],[30.83949929585804,-29.77578466919179],[30.839855780779448,-29.774730267994574],[30.840199263097674,-29.774041836562475],[30.840728728557849,-29.773960211874574],[30.841067373527157,-29.773706410051457],[30.842984878604504,-29.771761278019323],[30.843324131167357,-29.770783104178054],[30.843548302080176,-29.77025284775247],[30.843743424301962,-29.768426257136113],[30.844063873920419,-29.76779879603885],[30.845208416101332,-29.767701877651582],[30.847099843091538,-29.767927737283163],[30.848123641440036,-29.767857099989445],[30.848524328267008,-29.768263871690419],[30.849026093878429,-29.768432328173596],[30.850052704213486,-29.76793417317884],[30.851547083855589,-29.76744131996162],[30.852060411390053,-29.766441137404851],[30.852343869395586,-29.765999236938374],[30.852224543140409,-29.764682998770855],[30.852799106176331,-29.764000648762995],[30.852377298177924,-29.763894897337384],[30.851652998351206,-29.762851567420491],[30.851554190582501,-29.76254852368827],[30.853632546690786,-29.762550856718168],[30.853632813337345,-29.762369530466188]]]}},
{"type":"Feature","properties":{"sde_LDR_Mi":0.0,"CAT_NAME":"Kloof 4","MAJ_CAT":"Umgeni River","Shape_STAr":2792942.3538099998,"Shape_STLe":9795.5189267599999},"geometry":{"type":"Polygon","coordinates":[[[30.814505415893311,-29.79305553318687],[30.814112461293153,-29.792831953149658],[30.812727682539222,-29.792094032671837],[30.811463557806395,-29.791303702887113],[30.8103790530851,-29.791144434077911],[30.808751947552022,-29.791089500965718],[30.807305393943881,-29.791087278762006],[30.80725363278869,-29.791122271658274],[30.807410067510645,-29.789806057563613],[30.80799331828123,-29.788997206884467],[30.808274096565391,-29.788786886627811],[30.809217129512433,-29.788872158430905],[30.810967514256621,-29.789151552335024],[30.812146786472344,-29.788348662538272],[30.814113971005884,-29.788167260163739],[30.81523857691791,-29.788716610484823],[30.815884604096929,-29.788403317193971],[30.818113124930264,-29.788562678886183],[30.818988111739003,-29.788023350573884],[30.819656288314729,-29.787348865603892],[30.820683827137749,-29.787080548821699],[30.821889446438455,-29.78526297492963],[30.823568311770611,-29.785097370505873],[30.824910362424141,-29.784097921964761],[30.825804710571795,-29.782856548697374],[30.825429767607702,-29.781654434489049],[30.825239847522713,-29.780271783529162],[30.825977119376923,-29.779123116200029],[30.826275795682069,-29.777984055014493],[30.827161518664731,-29.777320463292824],[30.827837304353849,-29.77630133686926],[30.829193126852086,-29.776401447693985],[30.830057265493721,-29.776125897018403],[30.83089069815944,-29.775721659652703],[30.83330194616731,-29.775483625169397],[30.835653453158997,-29.774280753717768],[30.836252444908258,-29.773675918142807],[30.836683919861468,-29.77350866643852],[30.838318608072615,-29.772261367386555],[30.83844633210764,-29.771418682818986],[30.839502644097895,-29.772158816524367],[30.840637022964703,-29.773496685711049],[30.840728728557849,-29.773960211874574],[30.840199263097674,-29.774041836562475],[30.839855780779448,-29.774730267994574],[30.83949929585804,-29.77578466919179],[30.839706834360118,-29.77758571895469],[30.839507541523542,-29.779267822626664],[30.838934291795368,-29.779483894517934],[30.839829880732463,-29.780806589547829],[30.839752929626499,-29.781456016034344],[30.837405786838239,-29.781682611688471],[30.837084656245807,-29.783847010537585],[30.836648225532446,-29.784736398584094],[30.836458669928515,-29.785296914192042],[30.835191944432776,-29.785459958029971],[30.834959130472008,-29.787028887665958],[30.834337880226709,-29.788956546559582],[30.833740607559005,-29.788902654349108],[30.833340928223539,-29.788937687744959],[30.832326636228554,-29.789572469807037],[30.832180034166768,-29.789726001722688],[30.832063914497958,-29.789694556791673],[30.831677635649239,-29.790670044128358],[30.830469840901777,-29.79009737258934],[30.828784123284088,-29.789810499941574],[30.827913742998135,-29.789856801964014],[30.826879849772201,-29.790092662850824],[30.825682499048817,-29.790470717150832],[30.825648000734152,-29.790483201298407],[30.824376213149623,-29.790943422185389],[30.823232929013322,-29.79151122335648],[30.821981012079224,-29.791983976362022],[30.82116432810788,-29.79240986859093],[30.820238931291236,-29.792788159725788],[30.819095602971153,-29.793355923874241],[30.818016777746578,-29.793667920313165],[30.817952695303052,-29.793686452868819],[30.816798365041052,-29.793722127819223],[30.816483931867946,-29.793731844243062],[30.815320035106026,-29.793517678988394],[30.815316552829099,-29.793517038125028],[30.814505415893311,-29.79305553318687]]]}},
{"type":"Feature","properties":{"sde_LDR_Mi":0.0,"CAT_NAME":"Kloof 7","MAJ_CAT":"Umgeni River","Shape_STAr":856016.07281899999,"Shape_STLe":4731.6955004600004},"geometry":{"type":"Polygon","coordinates":[[[30.852805370218505,-29.796292082067431],[30.852787268240398,-29.796367890341624],[30.852760587449545,-29.796445992163722],[30.852726466199329,-29.796521858778515],[30.852685146510471,-29.7965949520305],[30.85263692146723,-29.796664753435671],[30.85258213313881,-29.796730767859707],[30.852521170153139,-29.796792527030064],[30.85245446494044,-29.796849592858031],[30.852382490665914,-29.796901560546431],[30.852305757873207,-29.796948061461251],[30.851702179724565,-29.797283342093998],[30.851621165694997,-29.797317387970903],[30.851537539512915,-29.797346231780796],[30.851451739597969,-29.797369722306101],[30.851364215766857,-29.797387736394654],[30.85127542687513,-29.797400179605059],[30.851185838411126,-29.79740698670199],[30.851095920055478,-29.797408121998391],[30.851011700888733,-29.797404995976773],[30.850927529632852,-29.797408984624049],[30.850844194517713,-29.797420050588027],[30.850762475943654,-29.79743809024032],[30.85068313917359,-29.797462934646685],[30.85060692716733,-29.797494351148796],[30.850534553624225,-29.797532045543097],[30.85046669630011,-29.797575664835474],[30.850403990660343,-29.797624800547055],[30.850347023929221,-29.79767899253892],[30.850296329590631,-29.797737733321085],[30.850252382392238,-29.797800472804937],[30.850215593899033,-29.79786662345397],[30.850186308639227,-29.797935565786336],[30.85018505036992,-29.797939725408892],[30.850164800877053,-29.798006654175268],[30.850151272044037,-29.798079222895609],[30.85014584885197,-29.79815259235777],[30.850148582105692,-29.798226075471845],[30.850159446226524,-29.798298984082237],[30.850178339491343,-29.798370635412024],[30.850205084984431,-29.798440358456933],[30.850239432253691,-29.798507500269565],[30.850281059655469,-29.798571432074159],[30.850329577366377,-29.79863155515508],[30.850384531033487,-29.798687306464167],[30.850445406029056,-29.79873816389355],[30.850511632269747,-29.798783651165596],[30.850582589555543,-29.798823342293236],[30.850657613377685,-29.798856865569775],[30.850736001142224,-29.798883907049962],[30.850817018749936,-29.798904213490211],[30.850899907471437,-29.798917594720614],[30.85098389105319,-29.798923925425647],[30.851168603168535,-29.798957223956481],[30.8512487911356,-29.79896841575108],[30.851327970939678,-29.798984147168134],[30.851405805110527,-29.799004351159212],[30.851481961912551,-29.799028941613514],[30.851556116758555,-29.799057813724765],[30.851649348227312,-29.799106067182379],[30.851738467308905,-29.799159908089841],[30.851823034561871,-29.799219070964689],[30.851902632986935,-29.799283264081907],[30.851976870083426,-29.799352170912361],[30.852045379784414,-29.799425451683458],[30.852107824262106,-29.799502745054522],[30.852163895593456,-29.79958366989808],[30.852213317278981,-29.799667827179352],[30.852255845606205,-29.799754801923548],[30.852291270851701,-29.799844165262058],[30.85231941831557,-29.799935476547173],[30.852340149183288,-29.800028285524487],[30.852353361210309,-29.800122134553547],[30.852358989226925,-29.800216560863955],[30.852357005459901,-29.800311098837497],[30.85235580522577,-29.800322891568648],[30.850143246819812,-29.800178015904212],[30.849835470428864,-29.800083573092071],[30.849843904065281,-29.800108108768978],[30.849238419012767,-29.799710951490919],[30.848696290048089,-29.799500054638074],[30.848093570698147,-29.799499355265585],[30.847309951302414,-29.799551010285949],[30.846405786934053,-29.799602518843162],[30.845501540897157,-29.799706589795324],[30.844917583356416,-29.799755532829053],[30.84438576808056,-29.799812869415248],[30.843887459814695,-29.799696334330193],[30.84327187892297,-29.799441109891021],[30.842669494258175,-29.799230109673541],[30.842326818111228,-29.798882883598367],[30.841994879019776,-29.798650603005626],[30.841663111619727,-29.798302374239007],[30.841430857008692,-29.798070206168028],[30.840600937277642,-29.797518461020267],[30.84010310879356,-29.797112062751012],[30.839737837204851,-29.796937714876513],[30.839711022422826,-29.796921588436092],[30.839838124392152,-29.796763689993803],[30.839817953626408,-29.796743945979312],[30.840070525329608,-29.795719829743085],[30.840347726181498,-29.79551954093639],[30.841173061459305,-29.79435612265544],[30.843157301339268,-29.794164483000529],[30.843563923427109,-29.793738635997126],[30.845271362128535,-29.793550131564658],[30.846246440134443,-29.793699322603889],[30.847049398470958,-29.79399552819299],[30.847233909657668,-29.794197186413598],[30.848641252408402,-29.79446439938086],[30.84892757878789,-29.794777221743782],[30.850143435193939,-29.795553991476744],[30.851375372725482,-29.795968561581311],[30.851920562410957,-29.796028358304145],[30.852506273700179,-29.795965510596709],[30.852805370218505,-29.796292082067431]]]}},
{"type":"Feature","properties":{"sde_LDR_Mi":0.0,"CAT_NAME":"Kloof 10","MAJ_CAT":"Umbilo River","Shape_STAr":1074466.15072,"Shape_STLe":5367.67062876},"geometry":{"type":"Polygon","coordinates":[[[30.814885978159111,-29.798194941612291],[30.813862843663536,-29.797404977884575],[30.812899204759585,-29.797035632431349],[30.811693995771229,-29.796928769411728],[30.810790239882344,-29.796769764884715],[30.809826618465578,-29.796400397074077],[30.809044620444482,-29.795610746285707],[30.808624046182885,-29.794926753644273],[30.807600834116837,-29.794136650076858],[30.806697202689616,-29.793925048205971],[30.805793882713797,-29.793555736417645],[30.805614099869281,-29.793029789088973],[30.805675801141149,-29.792293927344257],[30.806219151891412,-29.791821630184664],[30.807305393943881,-29.791087278762006],[30.808751947552022,-29.791089500965718],[30.8103790530851,-29.791144434077911],[30.811463557806395,-29.791303702887113],[30.812727682539222,-29.792094032671837],[30.814112461293153,-29.792831953149658],[30.814505415893311,-29.79305553318687],[30.815316552829099,-29.793517038125028],[30.815320035106026,-29.793517678988394],[30.816483931867946,-29.793731844243062],[30.816798365041052,-29.793722127819223],[30.817952695303052,-29.793686452868819],[30.819039398126304,-29.794352192823244],[30.819908615145359,-29.794970180412545],[30.820723191230922,-29.795730422876037],[30.821701819060692,-29.796016434749099],[30.822244804449138,-29.796586486722575],[30.823059493734366,-29.797299275662617],[30.823625700782877,-29.797996755659661],[30.824528096978327,-29.798944201465915],[30.825370790896649,-29.799576154774755],[30.825550498047768,-29.800207213141388],[30.825549022232533,-29.801048298660088],[30.82560818757354,-29.801679192261624],[30.825667078121047,-29.802467788597912],[30.825966692096401,-29.803466991811515],[30.825783846395861,-29.804623227120224],[30.825677840691167,-29.804598745322124],[30.824639084315393,-29.804358844054537],[30.82361552746276,-29.803726644307623],[30.822231661832117,-29.802357978278589],[30.820666818460047,-29.801094202069745],[30.818860448221976,-29.800092914234636],[30.81729423533292,-29.799617619329233],[30.815788586518039,-29.79898472676312],[30.814885978159111,-29.798194941612291]]]}},
{"type":"Feature","properties":{"sde_LDR_Mi":0.0,"CAT_NAME":"Kloof 11","MAJ_CAT":"Umbilo River","Shape_STAr":660647.19319500006,"Shape_STLe":3773.9046106400001},"geometry":{"type":"Polygon","coordinates":[[[30.819709945201954,-29.807841196521235],[30.819644912054532,-29.807813961072451],[30.818907225136595,-29.807505014985924],[30.816858953825523,-29.806871326350478],[30.815654780444891,-29.806133669576369],[30.814932454798036,-29.805606993216468],[30.814271290198775,-29.804607287823018],[30.814876970932652,-29.803031122764086],[30.81505927563159,-29.802242846984004],[30.815060156210315,-29.80176974148949],[30.815061036769887,-29.801296635058975],[30.814881099125351,-29.800823272782793],[30.81464117413536,-29.80019215542092],[30.814100294533162,-29.799350311261328],[30.813620186591947,-29.798245712700623],[30.812899204759585,-29.797035632431349],[30.813862843663536,-29.797404977884575],[30.814885978159111,-29.798194941612291],[30.815788586518039,-29.79898472676312],[30.81729423533292,-29.799617619329233],[30.818860448221976,-29.800092914234636],[30.820666818460047,-29.801094202069745],[30.822231661832117,-29.802357978278589],[30.82361552746276,-29.803726644307623],[30.824639084315393,-29.804358844054537],[30.825677840691167,-29.804598745322124],[30.824953602603571,-29.805412007971764],[30.824732685117393,-29.805549178244334],[30.824448667008483,-29.805713755690505],[30.824038547849433,-29.805878161992549],[30.823722856412044,-29.806125176934351],[30.823470117230503,-29.806427264199012],[30.823028222685441,-29.806729093310334],[30.82252327367593,-29.807030835365389],[30.821924038979024,-29.807167482413796],[30.820914670912533,-29.807468524157777],[30.820347005640603,-29.807577714572037],[30.819709945201954,-29.807841196521235]]]}},
{"type":"Feature","properties":{"sde_LDR_Mi":0.0,"CAT_NAME":"Kloof 9","MAJ_CAT":"Umbilo River","Shape_STAr":1517292.30103,"Shape_STLe":5430.0001198999998},"geometry":{"type":"Polygon","coordinates":[[[30.817952695303052,-29.793686452868819],[30.819095602971153,-29.793355923874248],[30.820238931291236,-29.792788159725788],[30.82116432810788,-29.792409868590941],[30.821981012079224,-29.791983976362022],[30.823232929013322,-29.79151122335648],[30.824376213149627,-29.790943422185389],[30.825648000734152,-29.790483201298407],[30.825682499048817,-29.790470717150832],[30.826879849772201,-29.790092662850824],[30.827913742998135,-29.789856801964014],[30.828784123284088,-29.789810499941574],[30.830469840901777,-29.79009737258934],[30.831677635649239,-29.790670044128358],[30.831774248043899,-29.790715851694664],[30.832588800941071,-29.791523471716236],[30.83340304843302,-29.792520869342546],[30.834380689803488,-29.793423563838903],[30.83573900856744,-29.794374187240493],[30.837011369035725,-29.794702317339642],[30.835923821610944,-29.796330579134903],[30.834836931613655,-29.797538317161798],[30.834533910241916,-29.798536734948051],[30.834230706374161,-29.799640290775837],[30.834228950312557,-29.800691658144537],[30.834287469574925,-29.801743098218768],[30.834286329786352,-29.802426482844215],[30.834525566501966,-29.803530721228888],[30.834885041143991,-29.804845383762384],[30.833620044928786,-29.804370659083695],[30.832355060687924,-29.8038959358421],[30.831391370922159,-29.803474169138443],[30.830609053325958,-29.80273724413404],[30.828923106803892,-29.80173623174095],[30.828140837507451,-29.800999218106593],[30.827177575454677,-29.800367105088153],[30.826274042343421,-29.800050483554031],[30.825370790896649,-29.799576154774755],[30.824528096978327,-29.798944201465915],[30.823625700782877,-29.797996755659661],[30.823059493734366,-29.797299275662617],[30.822244804449138,-29.796586486722575],[30.821701819060692,-29.796016434749099],[30.820723191230922,-29.795730422876037],[30.819908615145359,-29.794970180412545],[30.819039398126304,-29.794352192823244],[30.817952695303052,-29.793686452868819]]]}},
{"type":"Feature","properties":{"sde_LDR_Mi":0.0,"CAT_NAME":"Kloof 12","MAJ_CAT":"Umhlatuzana River","Shape_STAr":597058.30804799998,"Shape_STLe":4245.72231336},"geometry":{"type":"Polygon","coordinates":[[[30.806172217877378,-29.793710415315431],[30.806697202689616,-29.793925048205971],[30.807600834116837,-29.794136650076858],[30.807682356119091,-29.794199602650036],[30.808624046182885,-29.794926753644273],[30.809044620444482,-29.795610746285707],[30.809826618465578,-29.796400397074077],[30.810790239882344,-29.796769764884715],[30.811693995771229,-29.796928769411728],[30.812899204759585,-29.797035632431349],[30.813620186591947,-29.798245712700623],[30.814100294533162,-29.799350311261328],[30.81464117413536,-29.80019215542092],[30.814881099125351,-29.800823272782793],[30.815061036769887,-29.801296635058975],[30.815060156210315,-29.80176974148949],[30.81505927563159,-29.802242846984004],[30.814876970932652,-29.803031122764086],[30.814664695488666,-29.803583534492486],[30.813047860072572,-29.80306648357746],[30.81236808518468,-29.802295754537734],[30.810718719635037,-29.802130290686723],[30.809833882934001,-29.802594047848991],[30.808948083137491,-29.802908770277618],[30.808166048291802,-29.803318630179767],[30.807738798977578,-29.80393937554912],[30.807285780776134,-29.804243352375117],[30.80737995961702,-29.804806042619173],[30.806874633054235,-29.80514503436995],[30.805955142640464,-29.80546644420134],[30.805956097452647,-29.804922473772333],[30.805857447697601,-29.804284190598043],[30.805552312829786,-29.80247871929296],[30.806902588780765,-29.80139123987292],[30.807115983053261,-29.800045647126268],[30.807575987121538,-29.798524554497362],[30.80731806554941,-29.797219725652671],[30.807331110137536,-29.796945593304464],[30.807318132411304,-29.796649321848463],[30.806904234993574,-29.796313759683329],[30.806705374067299,-29.795762548296395],[30.804729987078264,-29.793859054379599],[30.805093001059529,-29.793813496862008],[30.805407221251723,-29.793543510581358],[30.805779613723864,-29.793513993945609],[30.805793882713797,-29.793555736417645],[30.806172217877378,-29.793710415315431]]]}},
{"type":"Feature","properties":{"sde_LDR_Mi":0.0,"CAT_NAME":"Kloof 6","MAJ_CAT":"Umgeni River","Shape_STAr":3291023.9865899999,"Shape_STLe":8881.4562637899999},"geometry":{"type":"Polygon","coordinates":[[[30.851328862247478,-29.79595291020312],[30.850143435193939,-29.795553991476744],[30.84892757878789,-29.794777221743782],[30.848641252408402,-29.79446439938086],[30.847233909657668,-29.79419718641358],[30.847049398470958,-29.79399552819299],[30.846246440134443,-29.793699322603889],[30.845271362128535,-29.793550131564658],[30.84515842090271,-29.792689411921486],[30.845194701079674,-29.791917960036159],[30.845848139609572,-29.790844331797203],[30.847878570555235,-29.79056462091463],[30.848934687149004,-29.790187680880372],[30.849328096501957,-29.789108668629165],[30.849808448687654,-29.78831924291153],[30.8503645004592,-29.787871050500062],[30.850577839434344,-29.787477929855232],[30.850990887577051,-29.786799288713038],[30.849956147641603,-29.786214698107212],[30.849756811055091,-29.785767109280638],[30.850273670982411,-29.785032928625562],[30.849956201536692,-29.78494695320876],[30.849673650105931,-29.784408245007128],[30.849820360167985,-29.782307187410648],[30.849148681180445,-29.781225530544994],[30.849570378242134,-29.780204423446154],[30.849547443201281,-29.779859822111518],[30.849893534937458,-29.779305735547251],[30.849302768679198,-29.778354357951251],[30.849978964322975,-29.777512059332665],[30.850175696004815,-29.777139438757299],[30.852156175575438,-29.776961620696671],[30.853087484219579,-29.77605468177439],[30.853825912851761,-29.775646123660948],[30.854440521127117,-29.775047617142306],[30.854753660984539,-29.773880528277139],[30.854973869486596,-29.773346988862681],[30.855588480192338,-29.771524126010519],[30.855906686731934,-29.771076213714412],[30.856849952340962,-29.770993319136331],[30.857666092446522,-29.770799349762402],[30.858930136384668,-29.770632739999058],[30.85892826649982,-29.770612123070769],[30.859015814561257,-29.770665039201102],[30.859296519356022,-29.770834750923829],[30.859471227395382,-29.770940305454506],[30.86028247051901,-29.771430663363898],[30.86260548452433,-29.77283473801721],[30.86224700070867,-29.773526178521077],[30.861973943647463,-29.774052841530029],[30.861335377565453,-29.774739320289754],[30.860994962565009,-29.775079292957837],[30.860069687888394,-29.776003349176325],[30.859157925335332,-29.776916050670771],[30.858886779000699,-29.777185685004383],[30.858245008803944,-29.777828675918045],[30.857997989164563,-29.778075332656048],[30.857812672895534,-29.778263120992499],[30.857162685759484,-29.778909878822841],[30.857023425518662,-29.779048445673229],[30.857331591919866,-29.779425067043785],[30.857698672955923,-29.779873685503816],[30.857957362120242,-29.780190953634868],[30.858013222535455,-29.780259773878829],[30.858022511108164,-29.780266450583259],[30.858307259035485,-29.780471098980442],[30.858045489311202,-29.781813789456518],[30.858535491685362,-29.783604479262685],[30.859122639467436,-29.785750095957209],[30.859739833462331,-29.788005409258684],[30.851328862247478,-29.79595291020312]]]}},
{"type":"Feature","properties":{"sde_LDR_Mi":0.0,"CAT_NAME":"Kloof 8","MAJ_CAT":"Umbilo River","Shape_STAr":865143.56699399999,"Shape_STLe":3824.8089303699999},"geometry":{"type":"Polygon","coordinates":[[[30.851340966078588,-29.804299946857356],[30.851187961991968,-29.804360048611265],[30.850845676691758,-29.804494465580014],[30.850370429220817,-29.804681798721969],[30.850147371466356,-29.804456757146216],[30.849923878857666,-29.804231272653531],[30.849700830355424,-29.804006221302771],[30.849630519521263,-29.803935914482228],[30.849475899990132,-29.803779282887316],[30.849240512726553,-29.803541364183332],[30.84907059707179,-29.803369620230825],[30.84802732043276,-29.801884763064262],[30.847930666385132,-29.801747124657908],[30.847884450838468,-29.801734892784985],[30.847824896526554,-29.801719667623619],[30.84755824247296,-29.801651424895692],[30.847182039069704,-29.801554785112877],[30.847181322534293,-29.801554602055088],[30.846561788704335,-29.801395298781177],[30.845831182507574,-29.801443514382136],[30.845775184174421,-29.801446915926377],[30.845456570659827,-29.801469141142558],[30.845264225258404,-29.801480942355202],[30.84446736288012,-29.801511697898039],[30.84411455888274,-29.801525359067345],[30.843682439264466,-29.801542055896231],[30.842725068714085,-29.80157937515715],[30.842210401553675,-29.801417934455632],[30.841755512172831,-29.801275259879503],[30.841497876490305,-29.801121297563711],[30.841240573308387,-29.800967536317469],[30.840733356908437,-29.800664429007529],[30.839064568722225,-29.801122644270873],[30.839013345401636,-29.801136744364122],[30.838343149464521,-29.80102983737434],[30.837948663953615,-29.800796979438388],[30.837476122707191,-29.800580204897543],[30.836833351221113,-29.800285598860697],[30.836514842487261,-29.800139490403595],[30.835540275340964,-29.799692423032571],[30.834895387069714,-29.800306498894198],[30.834857889025596,-29.800342108374132],[30.834852600646656,-29.800347130404475],[30.834348726321444,-29.800377800069967],[30.834229215872384,-29.800532669030861],[30.834229410859805,-29.800415930408924],[30.834230706374186,-29.799640290775837],[30.834533910241916,-29.798536734948051],[30.834836931613655,-29.797538317161798],[30.835923821610955,-29.796330579134896],[30.837011369035725,-29.794702317339649],[30.837314756392413,-29.795195665175513],[30.837845795129496,-29.79560210933797],[30.838576038954105,-29.79612473239893],[30.83920664264468,-29.796618241325167],[30.839711022422826,-29.796921588436092],[30.839737837204851,-29.796937714876513],[30.84010310879356,-29.797112062751012],[30.840600937277642,-29.797518461020267],[30.841430857008707,-29.798070206168052],[30.841663111619727,-29.798302374238993],[30.841994879019776,-29.798650603005626],[30.842326818111228,-29.798882883598367],[30.842669494258175,-29.799230109673541],[30.84327187892297,-29.799441109891021],[30.843887459814695,-29.799696334330193],[30.84438576808056,-29.799812869415248],[30.844917583356423,-29.799755532829053],[30.845501540897157,-29.799706589795324],[30.846405786934053,-29.799602518843162],[30.847309951302414,-29.799551010285949],[30.848093570698147,-29.799499355265585],[30.848696290048089,-29.799500054638074],[30.849238419012767,-29.799710951490919],[30.849843904065281,-29.800108108768978],[30.849960967707108,-29.80018489352679],[30.850065511340791,-29.800513756734258],[30.85094563770657,-29.803282363587549],[30.850980714483814,-29.803392704215035],[30.851340986604839,-29.804286767057366],[30.851340966078588,-29.804299946857356]]]}}
]
}
