{
"type": "FeatureCollection",
"name": "Phase7_Westmand_NewGermany",
"crs": { "type": "name", "properties": { "name": "urn:ogc:def:crs:OGC::CRS84" } },
"features": [
{"type":"Feature","properties":{"sde_LDR_Mi":0.0,"CAT_NAME":"Umbilo River","MAJ_CAT":"Umbilo River","CatchNames":"Westmead 4"},"geometry":{"type":"Polygon","coordinates":[[[30.843918875101934,-29.809587486157433],[30.842897794748271,-29.810562814230355],[30.842137344824319,-29.811430743007676],[30.841329567388033,-29.81221586221746],[30.84009452152884,-29.813165946564801],[30.839430005855853,-29.81333063092876],[30.837816591757075,-29.813535506858447],[30.836298739566953,-29.813326748581069],[30.835018316128856,-29.812994152608749],[30.834212399326951,-29.812620773476382],[30.834182616517346,-29.811763184358178],[30.834386654693983,-29.810967944556399],[30.834433165736687,-29.81078666416732],[30.834658701211357,-29.809907627170432],[30.834862538152262,-29.809230244170827],[30.835032491041812,-29.808611745256218],[30.835371268256729,-29.80805239135093],[30.835709897219044,-29.807581431010888],[30.836569160535984,-29.807055449875929],[30.837593320098609,-29.807372069842824],[30.838255664725725,-29.80779339934244],[30.839580041242574,-29.808846344007925],[30.84072454565073,-29.809320836608343],[30.841804732616509,-29.809589014875264],[30.843446979425252,-29.809678582950188],[30.843918875101934,-29.809587486157433]]]}},
{"type":"Feature","properties":{"sde_LDR_Mi":0.0,"CAT_NAME":"Umbilo River","MAJ_CAT":"Umbilo River","CatchNames":"Westmead 6"},"geometry":{"type":"Polygon","coordinates":[[[30.829124866788121,-29.812602492521531],[30.829480411085079,-29.812743432367419],[30.83003782219237,-29.812733808304866],[30.830393547147054,-29.812768739094754],[30.830971546403156,-29.813047384046289],[30.831127894550303,-29.813030546674426],[30.832219438964241,-29.812825089966218],[30.833310841716074,-29.812702370449063],[30.834212399326958,-29.812620773476382],[30.83501831612887,-29.812994152608749],[30.83629873956696,-29.813326748581062],[30.836252953916009,-29.814003168283985],[30.836214708280764,-29.814168693541362],[30.835702470559369,-29.815146204207775],[30.835006279594332,-29.815928066139822],[30.834846998612758,-29.816111467524649],[30.834522219359158,-29.816828020300761],[30.834289442066527,-29.817517876863835],[30.83420196573924,-29.817888090566068],[30.834124210001033,-29.818216234186199],[30.833782190895214,-29.818451645138563],[30.832732421351697,-29.818121524006131],[30.832163632478508,-29.817789808414251],[30.831832212593316,-29.817375649936285],[30.831453280925206,-29.817002802285884],[30.830789261209464,-29.816877824213318],[30.830172476327949,-29.816877023940105],[30.829413074278062,-29.817041529437066],[30.828653386519054,-29.817371523762297],[30.828130634872036,-29.817867321050695],[30.827607877028026,-29.818363117114032],[30.827084969538166,-29.818941663489355],[30.826846803108186,-29.819479211626987],[30.826561124438776,-29.820058051387583],[30.826227483412907,-29.82001595608779],[30.825727225213758,-29.820067507845298],[30.825146598244036,-29.819939118880853],[30.824554047707821,-29.819955785743556],[30.823870171007204,-29.819916954825377],[30.823253594056482,-29.819826499823424],[30.822497053970558,-29.819537002389957],[30.822314358523709,-29.81935048588841],[30.821953302677063,-29.818734247028296],[30.821736854094478,-29.818260299267198],[30.821620226910959,-29.818086802502872],[30.822680133673888,-29.816551750412849],[30.822999436974612,-29.816097690689734],[30.823597321084677,-29.815610354510348],[30.823707087236443,-29.814963176783031],[30.823834627284,-29.814505483212862],[30.8241250839353,-29.814063798980914],[30.824433311546802,-29.813811598944834],[30.824868327231901,-29.81352799194082],[30.82515819661899,-29.813417861400847],[30.82799081404027,-29.812653362754631],[30.828377568159262,-29.812547658880494],[30.829124866788121,-29.812602492521531]]]}},
{"type":"Feature","properties":{"sde_LDR_Mi":0.0,"CAT_NAME":"Umbilo River","MAJ_CAT":"Umbilo River","CatchNames":"Westmead 7"},"geometry":{"type":"Polygon","coordinates":[[[30.837569016092278,-29.819906691604267],[30.837757049531632,-29.820982633746162],[30.837851135034271,-29.821479231587922],[30.837803147193011,-29.821810158793774],[30.837612701182174,-29.822223653642155],[30.836900170618016,-29.822719246515934],[30.836282325867085,-29.823339074975404],[30.835664151046135,-29.824124378156181],[30.834570907996724,-29.825281451489214],[30.833952963663791,-29.825942639928652],[30.832906364554624,-29.827554863694115],[30.832383016807697,-29.828381659228523],[30.831622280528151,-29.829332317314901],[30.830987209426564,-29.829976399590066],[30.830481476376157,-29.830489299508351],[30.830061817235862,-29.829025330884281],[30.829771585898655,-29.828230438035],[30.829554638519955,-29.827213174915624],[30.829410536274374,-29.82622778802881],[30.828901741632539,-29.82536904616412],[30.828101322983546,-29.824541700398285],[30.826887557403712,-29.823326962553196],[30.826889145552027,-29.822416753045868],[30.827032856501198,-29.821630852566361],[30.827081095409458,-29.821175812064162],[30.827034295589023,-29.82080339252213],[30.826465870930654,-29.820264788195473],[30.826561122390995,-29.820058051129227],[30.826846803108168,-29.819479211626994],[30.827084969538166,-29.818941663489355],[30.827607877028019,-29.818363117114032],[30.828130634872021,-29.817867321050709],[30.828653386519054,-29.817371523762304],[30.829413074278062,-29.817041529437091],[30.830172476327945,-29.816877023940126],[30.830789261209453,-29.816877824213318],[30.831453280925182,-29.817002802285884],[30.831832212593316,-29.817375649936285],[30.832163632478494,-29.817789808414251],[30.832732421351682,-29.818121524006138],[30.834581836327324,-29.818703102664362],[30.835577789749159,-29.8189525991503],[30.836620923159714,-29.819367639132889],[30.837569016092278,-29.819906691604267]]]}},
{"type":"Feature","properties":{"sde_LDR_Mi":0.0,"CAT_NAME":"Umbilo River","MAJ_CAT":"Umbilo River","CatchNames":"Westmead 5"},"geometry":{"type":"Polygon","coordinates":[[[30.841400517476167,-29.813417583726491],[30.842481372218376,-29.813838061880734],[30.842967540438551,-29.814086147538454],[30.843258562872453,-29.814377312461776],[30.843716524417943,-29.814770855831227],[30.844297115783444,-29.815026939828169],[30.844702317125723,-29.815281639346033],[30.845562367179852,-29.815852199459854],[30.845572668848767,-29.815859030988712],[30.844965663515815,-29.816596608824725],[30.844260143499653,-29.817210179663135],[30.843883166009206,-29.817571641916],[30.842588110116662,-29.818672659531948],[30.842153038153736,-29.819143461260474],[30.841486422701575,-29.81954665241944],[30.840569319083698,-29.819654962766556],[30.839256359281787,-29.820331336539919],[30.838835826437098,-29.820278420841301],[30.837569016092285,-29.819906691604263],[30.836620923159714,-29.819367639132889],[30.835577789749159,-29.8189525991503],[30.834581836327345,-29.818703102664351],[30.833782190895214,-29.818451645138563],[30.834124210001033,-29.818216234186199],[30.83420196573924,-29.817888090566068],[30.834289442066527,-29.817517876863835],[30.834522219359158,-29.816828020300761],[30.834846998612758,-29.816111467524649],[30.835006279594332,-29.815928066139822],[30.835702470559369,-29.815146204207775],[30.836214707716113,-29.814168694338235],[30.836252953916009,-29.814003168283985],[30.83629873956696,-29.813326748581062],[30.837816591757075,-29.813535506858436],[30.83943000585586,-29.813330630928753],[30.84009452152884,-29.813165946564801],[30.841400517476167,-29.813417583726491]]]}},
{"type":"Feature","properties":{"sde_LDR_Mi":0.0,"CAT_NAME":"Umbilo River","MAJ_CAT":"Umbilo River","CatchNames":"Westmead 9"},"geometry":{"type":"Polygon","coordinates":[[[30.822680133673888,-29.816551750412849],[30.821620226910959,-29.818086802502872],[30.821556263893317,-29.8179916496312],[30.821339603495854,-29.817644008011161],[30.8210503843659,-29.817375208041188],[30.820761056198187,-29.817169561298666],[30.820435546180335,-29.816948075802308],[30.820431541514672,-29.816944791640122],[30.82080506611987,-29.816151749529915],[30.82078570551537,-29.815924196582152],[30.820663978583958,-29.815462083283961],[30.820451106659139,-29.815123951521333],[30.820261597883167,-29.81498579891284],[30.82016443866377,-29.814916415514769],[30.819994675075655,-29.814823315211758],[30.81978593981394,-29.814741132124208],[30.819720295123901,-29.814711335946207],[30.819679323261841,-29.81459456530775],[30.81933629216698,-29.814057282033779],[30.819127415893508,-29.813787100300239],[30.8190666040209,-29.813314938419651],[30.818653011177005,-29.812531642193541],[30.818228829848699,-29.812270149640828],[30.817968522265136,-29.812118295333477],[30.816507043724403,-29.811763998122849],[30.81547578015147,-29.811383622109393],[30.814715797989194,-29.811161508752356],[30.814154939359931,-29.810955462866787],[30.813739184433395,-29.810607522994697],[30.813432559130224,-29.809991331565527],[30.813377206335225,-29.809550330528591],[30.813361204357815,-29.809422840552653],[30.813328541564612,-29.80906426878213],[30.813307983340046,-29.808838586100336],[30.813372468812943,-29.808238709770574],[30.813405122223838,-29.807594227098093],[30.813410063681264,-29.807496698230668],[30.813574118305503,-29.806896963109395],[30.813810616016301,-29.806281542622735],[30.814010816009045,-29.805713438414124],[30.814271290198782,-29.804607287823007],[30.814932454798051,-29.805606993216468],[30.815654780444891,-29.806133669576344],[30.816858953825534,-29.806871326350478],[30.818907225136602,-29.807505014985907],[30.819644912054532,-29.807813961072466],[30.819709945201954,-29.807841196521224],[30.820292556577268,-29.808085190930111],[30.82167818281961,-29.808507644315466],[30.823244001366454,-29.809298301594495],[30.824930399183472,-29.810089098275718],[30.826134866074138,-29.810721523753795],[30.827158601315745,-29.811301130720011],[30.82860529548249,-29.811303042839274],[30.828238221658861,-29.812143094869825],[30.827990815027391,-29.81265336248487],[30.825158195630728,-29.813417861667549],[30.824868327231901,-29.81352799194082],[30.824433311546802,-29.813811598944834],[30.8241250839353,-29.814063798980914],[30.823834627284,-29.814505483212862],[30.823707087236443,-29.814963176783031],[30.823597321840435,-29.815610353894332],[30.822999436974612,-29.816097690689734],[30.822680133673888,-29.816551750412849]]]}},
{"type":"Feature","properties":{"sde_LDR_Mi":0.0,"CAT_NAME":"Umbilo River","MAJ_CAT":"Umbilo River","CatchNames":"Westmead 1"},"geometry":{"type":"Polygon","coordinates":[[[30.84219656718486,-29.801413595379842],[30.84218378999412,-29.801437388597741],[30.841941351253201,-29.802278191098122],[30.841819110424535,-29.803329433165128],[30.841697107079792,-29.804222943160489],[30.841575049721321,-29.805169019677191],[30.841513098188482,-29.806220302562831],[30.841029633535754,-29.807008237666789],[30.840787351479968,-29.807743891237806],[30.84012321180473,-29.808426465128122],[30.839580041242581,-29.808846344007943],[30.838255664725711,-29.807793399342462],[30.837593320098613,-29.807372069842824],[30.836569160535969,-29.807055449875911],[30.835846265206815,-29.806791673081104],[30.835485033024881,-29.806528356532308],[30.835184773450315,-29.80584457334696],[30.834944361773729,-29.805423714483037],[30.834885041143988,-29.804845383762384],[30.834525566501966,-29.803530721228888],[30.834286329786352,-29.802426482844215],[30.834287469574939,-29.801743098218754],[30.834228950312561,-29.800691658144537],[30.834229215872384,-29.800532669030854],[30.834348726321444,-29.800377800069967],[30.834852600646656,-29.800347130404475],[30.834857889025596,-29.800342108374132],[30.834895387069714,-29.800306498894198],[30.835540275340964,-29.799692423032571],[30.836514842487261,-29.800139490403595],[30.836833351221113,-29.800285598860686],[30.837476122707191,-29.800580204897543],[30.837948663953615,-29.800796979438388],[30.838343149464521,-29.80102983737434],[30.839013345401636,-29.801136744364122],[30.83906456872225,-29.801122644270873],[30.840733356908437,-29.800664429007529],[30.841240573308387,-29.800967536317469],[30.841497876490305,-29.801121297563711],[30.841755512172838,-29.801275259879503],[30.84219656718486,-29.801413595379842]]]}},
{"type":"Feature","properties":{"sde_LDR_Mi":0.0,"CAT_NAME":"Umbilo River","MAJ_CAT":"Umbilo River","CatchNames":"Westmead 2"},"geometry":{"type":"Polygon","coordinates":[[[30.851340966078588,-29.804299946857356],[30.851339922290382,-29.804970146523353],[30.851087356748348,-29.805555064519279],[30.850976914928065,-29.805810816113105],[30.850191890874239,-29.806703570133639],[30.849346976595363,-29.807491134593548],[30.848200280886459,-29.808488612680467],[30.846933522283408,-29.809117951470366],[30.846689568875355,-29.809197410203062],[30.845968608625594,-29.809432232098214],[30.844943568839458,-29.809641299732519],[30.843918875101924,-29.809587486157419],[30.843446979425266,-29.809678582950166],[30.841804732616502,-29.809589014875232],[30.84072454565074,-29.80932083660834],[30.839580041242581,-29.808846344007943],[30.84012321180473,-29.808426465128122],[30.840787351479968,-29.807743891237806],[30.841029633535754,-29.807008237666789],[30.841513098188482,-29.806220302562831],[30.841575049721321,-29.805169019677191],[30.841697107079792,-29.804222943160489],[30.841819110424535,-29.803329433165128],[30.841941351253201,-29.802278191098122],[30.84218378999412,-29.801437388597741],[30.842196567184864,-29.801413595379831],[30.842210401553675,-29.801417934455632],[30.842725068714085,-29.80157937515715],[30.843682439264466,-29.801542055896231],[30.844114558882733,-29.801525359067355],[30.84446736288012,-29.801511697898039],[30.845264225258404,-29.801480942355202],[30.845456570659827,-29.801469141142558],[30.845775184174421,-29.801446915926377],[30.845831182507574,-29.801443514382136],[30.846561788704335,-29.801395298781177],[30.847181322534301,-29.801554602055088],[30.847182039069704,-29.801554785112877],[30.84755824247296,-29.801651424895692],[30.847824896526554,-29.801719667623598],[30.847884450838468,-29.801734892784971],[30.847930666385132,-29.801747124657908],[30.84802732043276,-29.801884763064262],[30.84907059707179,-29.8033696202308],[30.849240512726553,-29.803541364183307],[30.849475899990132,-29.803779282887316],[30.849630519521263,-29.803935914482228],[30.849700830355424,-29.804006221302764],[30.849923878857666,-29.804231272653531],[30.850147371466356,-29.804456757146223],[30.850370429220817,-29.804681798721948],[30.850845676691758,-29.804494465580014],[30.851187961991968,-29.804360048611265],[30.851340966078588,-29.804299946857356]]]}},
{"type":"Feature","properties":{"sde_LDR_Mi":0.0,"CAT_NAME":"Umbilo River","MAJ_CAT":"Umbilo River","CatchNames":"Westmead 8"},"geometry":{"type":"Polygon","coordinates":[[[30.834433165736687,-29.81078666416732],[30.834386654693983,-29.810967944556399],[30.834182616517346,-29.811763184358178],[30.834212399326951,-29.812620773476382],[30.833310841716056,-29.812702370449085],[30.832219438964227,-29.812825089966196],[30.831127894550303,-29.813030546674444],[30.830971546403145,-29.8130473840463],[30.830393547147054,-29.812768739094754],[30.83003782219237,-29.812733808304866],[30.829480411085079,-29.812743432367419],[30.829124866788121,-29.812602492521545],[30.828377568159262,-29.812547658880494],[30.82799081305312,-29.812653363024449],[30.82823822165885,-29.812143094869832],[30.828605295482475,-29.811303042839274],[30.829511282748516,-29.809728764297237],[30.830841463820825,-29.809637548454294],[30.832091002653652,-29.809933798198287],[30.832732666876407,-29.810081940477271],[30.833441607222451,-29.81040694288663],[30.834433165736687,-29.81078666416732]]]}},
{"type":"Feature","properties":{"sde_LDR_Mi":0.0,"CAT_NAME":"Umbilo River","MAJ_CAT":"Umbilo River","CatchNames":"Westmead 3"},"geometry":{"type":"Polygon","coordinates":[[[30.84995645515237,-29.808948555556604],[30.849655393119789,-29.809667707424413],[30.849316861398417,-29.810354096649],[30.848753170129246,-29.811138350597098],[30.848264715857137,-29.811759166685089],[30.847588395701397,-29.812608692799991],[30.846912510391483,-29.813163877110469],[30.846762078679166,-29.813425311509182],[30.846461207346337,-29.81398092955174],[30.846197784093032,-29.814569296042077],[30.845934206286191,-29.815255774038953],[30.845562367179852,-29.815852199459854],[30.844702317125723,-29.815281639346033],[30.844297115783441,-29.815026939828169],[30.843716524417943,-29.814770855831227],[30.843258562872453,-29.814377312461772],[30.842967540438551,-29.814086147538454],[30.842481372218376,-29.813838061880734],[30.841400517476167,-29.813417583726491],[30.84009452152884,-29.813165946564801],[30.841329567388033,-29.81221586221746],[30.842137344824319,-29.811430743007676],[30.842897794748271,-29.810562814230344],[30.843918875101949,-29.809587486157433],[30.844943568839437,-29.80964129973249],[30.845968608625601,-29.809432232098228],[30.846689568875348,-29.809197410203055],[30.846933522283425,-29.809117951470348],[30.848200280886452,-29.808488612680463],[30.849346976595381,-29.807491134593569],[30.850191890874239,-29.806703570133639],[30.850182779140834,-29.8080330898336],[30.84995645515237,-29.808948555556604]]]}},
{"type":"Feature","properties":{"sde_LDR_Mi":0.0,"CAT_NAME":"Umgeni River","MAJ_CAT":"Umgeni River","CatchNames":"New Germany 1"},"geometry":{"type":"Polygon","coordinates":[[[30.877299280167819,-29.784516766625348],[30.877398842823066,-29.784792367222661],[30.878227107195276,-29.785736482902873],[30.877430916943798,-29.787045616773451],[30.878018605279671,-29.788017113552144],[30.877763334754288,-29.788529601366093],[30.877193242973661,-29.789467001951884],[30.87739288738695,-29.789688478298324],[30.877716282530919,-29.789950393964688],[30.878171650004109,-29.790379954728991],[30.879026098084385,-29.790775335392585],[30.881244631344451,-29.790983314233152],[30.881556566957148,-29.791498794668392],[30.881756152139062,-29.79186848029013],[30.883427041032757,-29.792044465383501],[30.883959401387948,-29.792546674525411],[30.886120335543069,-29.793323043582774],[30.886959653847267,-29.793498237157895],[30.887382345266627,-29.793693726268227],[30.88778934789001,-29.79368000186485],[30.888514577008173,-29.793774980668292],[30.889553319805472,-29.794501145854948],[30.889553118514922,-29.79468255898886],[30.889314728454892,-29.794951273845008],[30.888422518153252,-29.795167202170461],[30.888607877154101,-29.796266929748075],[30.88901721715494,-29.797141763535539],[30.889272802206335,-29.797512105228883],[30.889042917225943,-29.798229779058293],[30.888925429470348,-29.798308709409337],[30.887111296747122,-29.798742293633175],[30.885625961336416,-29.797862265944566],[30.880067616645761,-29.797668230731048],[30.879259944036175,-29.798030153161079],[30.878740338574815,-29.798249429298213],[30.877478284100739,-29.797801528836981],[30.876719906633635,-29.798141457782343],[30.87593185193548,-29.799296415916086],[30.874668962808187,-29.80057080692907],[30.872183265626536,-29.800921224863004],[30.871813462409492,-29.801256179844792],[30.870940204689141,-29.800738681543024],[30.870626393627987,-29.800649514443894],[30.870418622132075,-29.800467894245848],[30.869799792998705,-29.800371115893608],[30.868984729231773,-29.798727038718852],[30.868644708040886,-29.79820780264156],[30.868434488976987,-29.796761775113932],[30.866928986337349,-29.796190574285426],[30.866457701551731,-29.795694475099758],[30.865643051877417,-29.795566988346501],[30.865839804484448,-29.793179302236183],[30.865303689086819,-29.792760537264769],[30.865376366958163,-29.791717701649517],[30.864972237613159,-29.791067138048344],[30.865384246026245,-29.789731490195813],[30.86491882438634,-29.78898234968473],[30.863879190984708,-29.788770212618992],[30.863091349731125,-29.787999259923332],[30.861391277272901,-29.788085902554318],[30.860302216224603,-29.788028149662914],[30.860458508004083,-29.786132155570186],[30.86100760440624,-29.785577572427705],[30.862450876835677,-29.78485368944456],[30.862386097798311,-29.78413941160283],[30.862453066670088,-29.783423553111444],[30.86286151013471,-29.782786628993748],[30.86311892134546,-29.781803671173655],[30.864904667574162,-29.780687969431941],[30.865136090187043,-29.78023676502772],[30.867022690030716,-29.780070912097852],[30.867215541855746,-29.779694921703555],[30.867508804862517,-29.779475099969556],[30.868269648785645,-29.779529091086221],[30.868366987204126,-29.779430856846275],[30.868898222867376,-29.779350738738433],[30.869424949469114,-29.779081258942167],[30.86993718090736,-29.77969439779358],[30.870121481080819,-29.780077350477857],[30.870560056865038,-29.780238992752466],[30.871375012017783,-29.780759504447737],[30.871795023058869,-29.780805472533121],[30.873103297179895,-29.78066483946689],[30.874271486568489,-29.78187967595651],[30.874936692414543,-29.783917289945915],[30.876044785789048,-29.784692085384137],[30.877299280167819,-29.784516766625348]]]}},
{"type":"Feature","properties":{"sde_LDR_Mi":0.0,"CAT_NAME":"Umgeni River","MAJ_CAT":"Umgeni River","CatchNames":"New Germany 4"},"geometry":{"type":"Polygon","coordinates":[[[30.89246802439439,-29.790695512689243],[30.892229162940442,-29.791980190928275],[30.892659084997309,-29.792281037632396],[30.893160077281845,-29.793816748294589],[30.892942906286134,-29.795327872391386],[30.895073253448093,-29.795493072050615],[30.895257292189751,-29.796238634936746],[30.89577736511529,-29.796602513933824],[30.89601852121568,-29.798306258947072],[30.895277659761177,-29.798777379131153],[30.894762367060984,-29.798966316410301],[30.895346290769133,-29.79960350109155],[30.896693357541828,-29.799940617360551],[30.896823352232868,-29.800853922782782],[30.896635792345641,-29.800984670309457],[30.895897995695062,-29.802041899604252],[30.895043137086567,-29.802202511152213],[30.894441972166256,-29.802584776689539],[30.893379197275401,-29.802745117425459],[30.893078721954826,-29.802845650335669],[30.892993684452005,-29.802952842530981],[30.892279198029538,-29.803185360778645],[30.891830176811794,-29.803751248761976],[30.891309599248427,-29.803634261598862],[30.891207448113821,-29.802844099035191],[30.891416557666524,-29.801756225425123],[30.891118767748011,-29.801109614077674],[30.890884452408862,-29.8007701292745],[30.890703768854877,-29.800383958239802],[30.890362475363819,-29.799889485230068],[30.889898828365752,-29.799576774589113],[30.889457907399365,-29.798932181671557],[30.888925429470348,-29.798308709409337],[30.889042917225943,-29.798229779058293],[30.889272802206335,-29.797512105228883],[30.88901721715494,-29.797141763535539],[30.888607877154101,-29.796266929748075],[30.888422518153252,-29.795167202170461],[30.889314728454892,-29.794951273845008],[30.889553118514922,-29.79468255898886],[30.889553319805472,-29.794501145854948],[30.889672856451774,-29.793509750770767],[30.89153685025882,-29.792059906922628],[30.891831809896221,-29.791500843787016],[30.892164281236056,-29.790968331297602],[30.892052260472376,-29.790695170273132],[30.89246802439439,-29.790695512689243]]]}},
{"type":"Feature","properties":{"sde_LDR_Mi":0.0,"CAT_NAME":"Umgeni River","MAJ_CAT":"Umgeni River","CatchNames":"New Germany 2"},"geometry":{"type":"Polygon","coordinates":[[[30.888925429470348,-29.798308709409337],[30.889457907399365,-29.798932181671557],[30.889898828365752,-29.799576774589113],[30.890362475363819,-29.799889485230068],[30.890703768854877,-29.800383958239802],[30.890884452408862,-29.8007701292745],[30.891118767748011,-29.801109614077674],[30.891416557666524,-29.801756225425123],[30.891207448113821,-29.802844099035191],[30.890270211944433,-29.802746785966882],[30.889085714274277,-29.802966442077448],[30.886866212856713,-29.802735939675586],[30.886119809334748,-29.802381417149217],[30.885166936539168,-29.80212384131983],[30.884249167725248,-29.801835799300783],[30.882574319860645,-29.801663177854579],[30.881891516275456,-29.801246327535384],[30.881119841893675,-29.800936564585424],[30.880715846759006,-29.800744678303907],[30.878276380216626,-29.800571318330157],[30.876669705476509,-29.803072197123164],[30.874824728979199,-29.803277843486548],[30.873994724591544,-29.8028834554935],[30.873118804460109,-29.80264661691659],[30.872911024220958,-29.802465089975939],[30.872075078308075,-29.802277087926104],[30.871456366887511,-29.80191969593702],[30.871364496752808,-29.801456189803865],[30.870626393627987,-29.800649514443894],[30.870940204689141,-29.800738681543024],[30.871813462409492,-29.801256179844792],[30.872183265626536,-29.800921224863004],[30.874668962808187,-29.80057080692907],[30.87593185193548,-29.799296415916086],[30.876719906633635,-29.798141457782343],[30.877478284100739,-29.797801528836981],[30.878740338574815,-29.798249429298213],[30.879259944036175,-29.798030153161079],[30.880067616645761,-29.797668230731048],[30.885625961336416,-29.797862265944566],[30.887111296747122,-29.798742293633175],[30.888925429470348,-29.798308709409337]]]}},
{"type":"Feature","properties":{"sde_LDR_Mi":0.0,"CAT_NAME":"Umgeni River","MAJ_CAT":"Umgeni River","CatchNames":"New Germany 5"},"geometry":{"type":"Polygon","coordinates":[[[30.915537015268498,-29.799597778047968],[30.915629241664586,-29.799879929356546],[30.916213866742648,-29.801063344143124],[30.916304961196811,-29.801706430618506],[30.915650126138864,-29.802418674613801],[30.915392935509693,-29.802598027124727],[30.915607916776167,-29.804115162474179],[30.914994268723202,-29.804543174629718],[30.915038990890167,-29.804858852877214],[30.91480604626452,-29.805339977379493],[30.913833493439441,-29.805958543787824],[30.912310639462607,-29.806448457584114],[30.911787735229261,-29.806813097184001],[30.911464363858748,-29.807291988336214],[30.911167764385329,-29.807904500592237],[30.910747063715164,-29.808480210048295],[30.910215609667329,-29.808560492001131],[30.90962612754473,-29.808862199499295],[30.908967597726576,-29.809103685929013],[30.908446516472537,-29.809370254133221],[30.907743111812756,-29.808921496953378],[30.907096612134833,-29.808578405018764],[30.90599353494839,-29.807768254938779],[30.904492113833196,-29.808813696629162],[30.903556061254413,-29.808711426702175],[30.902545427369727,-29.808192319430056],[30.900443243211555,-29.808029429092425],[30.900258596652982,-29.807827845204937],[30.899768518822796,-29.807485124049769],[30.898245174009514,-29.807252728940401],[30.897555811815515,-29.807483219982117],[30.895529117921352,-29.807848047199577],[30.895213247407856,-29.808500382165565],[30.894329340419354,-29.809553611732721],[30.893065642456246,-29.810821137705332],[30.892146719967311,-29.810178883404546],[30.890916899514291,-29.809781286237399],[30.890276017663741,-29.809452015829173],[30.888289275984683,-29.809369675281715],[30.888381968042047,-29.809087752823331],[30.888818009839685,-29.808783931801202],[30.889008659916176,-29.806549592867874],[30.890072493063439,-29.805482567977585],[30.891090216402119,-29.804375259701864],[30.891552526929637,-29.804053137874693],[30.891830176811794,-29.803751248761976],[30.892279198029538,-29.803185360778645],[30.892993684452005,-29.802952842530981],[30.893078721954826,-29.802845650335669],[30.893379197275401,-29.802745117425459],[30.894441972166256,-29.802584776689539],[30.895043137086567,-29.802202511152213],[30.895897995695062,-29.802041899604252],[30.896635792345641,-29.800984670309457],[30.896823352232868,-29.800853922782782],[30.897931126825856,-29.801458133198953],[30.900128174153245,-29.801877882159896],[30.900980394208577,-29.801654707527238],[30.901493730636926,-29.800941434043445],[30.902171918812272,-29.800763867817327],[30.902908709407669,-29.800019257953075],[30.904481898065224,-29.79951677012383],[30.904877348267217,-29.799489364496186],[30.906782885277067,-29.799708146304287],[30.907151008175894,-29.801126896064918],[30.910449584741816,-29.800961241910201],[30.911058221074775,-29.800585568798905],[30.91416291378486,-29.800311347697015],[30.915201316848826,-29.799907976005809],[30.915425236538788,-29.799681691898222],[30.915537015268498,-29.799597778047968]]]}},
{"type":"Feature","properties":{"sde_LDR_Mi":0.0,"CAT_NAME":"Umgeni River","MAJ_CAT":"Umgeni River","CatchNames":"New Germany 3"},"geometry":{"type":"Polygon","coordinates":[[[30.891207448113821,-29.802844099035191],[30.891309599248427,-29.803634261598862],[30.891830176811794,-29.803751248761976],[30.891552526929637,-29.804053137874693],[30.891090216402119,-29.804375259701864],[30.890072493063439,-29.805482567977585],[30.889008659916176,-29.806549592867874],[30.888818009839685,-29.808783931801202],[30.888381968042047,-29.809087752823331],[30.888289275984683,-29.809369675281715],[30.88765367072439,-29.810423973506687],[30.886709113528347,-29.810893157224829],[30.886335948604422,-29.811760305797531],[30.885791160414811,-29.812087656587021],[30.885475338491176,-29.812000143283349],[30.882782501530581,-29.809814844457634],[30.882127609468679,-29.809445292785373],[30.881724054455482,-29.809458821364931],[30.881328321034506,-29.808725636895751],[30.880939850576716,-29.808411079066783],[30.880263779049717,-29.807605505428089],[30.878210027085913,-29.806757969247275],[30.877953617124696,-29.805814478338391],[30.875307910714511,-29.803671987936671],[30.873772429274826,-29.803457166889373],[30.873118804460109,-29.80264661691659],[30.873994724591544,-29.8028834554935],[30.874824728979199,-29.803277843486548],[30.876669705476509,-29.803072197123164],[30.878276380216626,-29.800571318330157],[30.880715846759006,-29.800744678303907],[30.881119841893675,-29.800936564585424],[30.881891516275456,-29.801246327535384],[30.882574319860645,-29.801663177854579],[30.884249167725248,-29.801835799300783],[30.885166936539168,-29.80212384131983],[30.886119809334748,-29.802381417149217],[30.886866212856713,-29.802735939675586],[30.889085714274277,-29.802966442077448],[30.890270211944433,-29.802746785966882],[30.891207448113821,-29.802844099035191]]]}},
{"type":"Feature","properties":{"sde_LDR_Mi":0.0,"CAT_NAME":"Umhlatuzana River","MAJ_CAT":"Umhlatuzana River","CatchNames":"Westmead 12"},"geometry":{"type":"Polygon","coordinates":[[[30.813842449214139,-29.810693944888424],[30.814353536955622,-29.811454967235921],[30.813959104175542,-29.812288139707],[30.81351920966106,-29.812811369192495],[30.813332951773155,-29.813556621777803],[30.813101653989371,-29.813717498855823],[30.8120828945078,-29.814824194100627],[30.811707298516957,-29.815085627842482],[30.812693210766419,-29.815776433114081],[30.812886314710745,-29.817726708139286],[30.815169748407115,-29.819878221076777],[30.81498314150906,-29.820812359253754],[30.814729336995558,-29.821385109218507],[30.815580981694961,-29.822445203456031],[30.815915745770344,-29.822679680743029],[30.816260276552498,-29.824012214606903],[30.81611366327289,-29.825026697345969],[30.816692900539163,-29.825659524200773],[30.817562024367597,-29.825792625516048],[30.817652363695341,-29.825895141037261],[30.818492009380506,-29.82619607677271],[30.818690909259015,-29.826621875215025],[30.819728844444779,-29.82769302491381],[30.819403119046676,-29.82805071231741],[30.818805240382208,-29.828263053202917],[30.818128768472118,-29.829697816183547],[30.817554703355345,-29.829781995405177],[30.816514794984105,-29.829780543419755],[30.816415022870046,-29.829686313579952],[30.81569402193848,-29.829388418906479],[30.815080326413366,-29.828249818735294],[30.812982318646252,-29.828143549990727],[30.812889171467237,-29.827500396008539],[30.812066226243065,-29.825810025494555],[30.811146808286981,-29.825141867127492],[30.811259618024938,-29.824192834008823],[30.810589414105699,-29.823705812628003],[30.810212758644372,-29.823309062051383],[30.809758902045594,-29.8229792259982],[30.809455454772827,-29.822659619831249],[30.809156072648832,-29.822054953722272],[30.808266564744251,-29.821408558526855],[30.807475236828491,-29.820981243620171],[30.806871282820524,-29.820601019912882],[30.805306435432133,-29.820231457782775],[30.804605227505611,-29.819492852193246],[30.804151406598187,-29.819162995945671],[30.803907555395934,-29.81843363924434],[30.802396770281383,-29.817429421195616],[30.80252793977964,-29.817119383708214],[30.802928202195691,-29.81553289423141],[30.803148002955464,-29.814289036729303],[30.8036182127207,-29.813374462295894],[30.804900695793172,-29.813081024874887],[30.805108622685076,-29.813081333485314],[30.806312155586877,-29.813486810205699],[30.806797687348524,-29.81201537327853],[30.807075192131759,-29.811714116788256],[30.807306391427456,-29.811553249178527],[30.807492088453717,-29.811170756097152],[30.809348417958894,-29.810995929976961],[30.810981634337036,-29.810591259517562],[30.811779380615977,-29.809725470825764],[30.812485948676382,-29.809364554012799],[30.813225736163741,-29.80910363385108],[30.813226619934767,-29.809096203404241],[30.813328541564605,-29.809064268782134],[30.813361204357815,-29.809422840552667],[30.813377206335208,-29.809550330528591],[30.813432559130209,-29.809991331565541],[30.813739184433395,-29.810607522994697],[30.813842449214139,-29.810693944888424]]]}},
{"type":"Feature","properties":{"sde_LDR_Mi":0.0,"CAT_NAME":"Umbilo River","MAJ_CAT":"Umbilo River","CatchNames":"Westmead 11"},"geometry":{"type":"Polygon","coordinates":[[[30.823870171007204,-29.819916954825377],[30.824554047707821,-29.819955785743556],[30.825146598244036,-29.819939118880853],[30.825727225213758,-29.820067507845298],[30.826227483412907,-29.82001595608779],[30.826561124438793,-29.820058051387576],[30.826465870930654,-29.820264788195473],[30.827034295589041,-29.820803392522123],[30.827081095409458,-29.821175812064162],[30.827032856501198,-29.821630852566344],[30.826889145552041,-29.822416753045861],[30.82688755740373,-29.823326962553196],[30.828101322983546,-29.824541700398285],[30.828901741632539,-29.825369046164109],[30.829410536274374,-29.826227788028802],[30.829554638519955,-29.827213174915617],[30.829771585898669,-29.828230438035],[30.830061817235862,-29.829025330884281],[30.830481476376157,-29.830489299508343],[30.831143938612399,-29.830488626050794],[30.830753684581524,-29.830791744592432],[30.830554538094649,-29.831351365582719],[30.828890503456449,-29.832612940721003],[30.828248191350244,-29.83296797943818],[30.828888652341792,-29.833690768922104],[30.82908397863509,-29.834245186480672],[30.829499468530106,-29.834569854508619],[30.829022775880837,-29.835540258464221],[30.82838204995322,-29.836163676918808],[30.82783208969407,-29.836590823424817],[30.827733730447214,-29.836686406549298],[30.826485740501273,-29.836820886772973],[30.826277162067495,-29.837047218923239],[30.825383308459326,-29.837262986680582],[30.823896248823591,-29.838415777632942],[30.822500220673465,-29.839331513813928],[30.821579341694228,-29.83965862935036],[30.821189724849638,-29.839862883656959],[30.820240209819506,-29.839940520336775],[30.820325993906593,-29.839470723760922],[30.82057982918716,-29.838946137895583],[30.820308769914565,-29.838179519547108],[30.819620191124198,-29.83776369689274],[30.819716924913418,-29.837485080174844],[30.819956139038059,-29.836919879980869],[30.819765437687717,-29.834809145528915],[30.819445658692935,-29.834307585403089],[30.818475079010753,-29.834051399832049],[30.818208311359641,-29.833274138463644],[30.818590615060881,-29.83237058032854],[30.818453805823967,-29.830855486989783],[30.817554703355345,-29.829781995405177],[30.818128768472135,-29.829697816183543],[30.818805240382208,-29.828263053202917],[30.819403119046669,-29.828050712317392],[30.819728844444789,-29.82769302491381],[30.818690909259029,-29.826621875215025],[30.818492009380506,-29.826196076772703],[30.817652363695352,-29.825895141037261],[30.817562024367597,-29.825792625516037],[30.818131327955655,-29.825585121365691],[30.818717125800493,-29.825918900464607],[30.818895208324179,-29.825505892684586],[30.81914160684429,-29.825358107240625],[30.819312536637504,-29.82478108602713],[30.819863436946534,-29.824163270469104],[30.820122447895212,-29.823163099710889],[30.819562872485438,-29.822411145955616],[30.819751494194076,-29.821034339073702],[30.820253783332017,-29.820401986910575],[30.820826097465204,-29.820514713177257],[30.821019507501276,-29.820326808851497],[30.821310192921079,-29.820127901090004],[30.821600829368641,-29.819955925208735],[30.822009003791447,-29.819687149717424],[30.822479426021957,-29.819559755460151],[30.822497057395577,-29.81953700250925],[30.823253594056482,-29.819826499823424],[30.823870171007204,-29.819916954825377]]]}},
{"type":"Feature","properties":{"sde_LDR_Mi":0.0,"CAT_NAME":"Umbilo River","MAJ_CAT":"Umbilo River","CatchName":"Westmead 10"},"geometry":{"type":"Polygon","coordinates":[[[30.821019507501276,-29.820326808851497],[30.820826097465204,-29.820514713177257],[30.820253783332017,-29.820401986910575],[30.819751494194076,-29.821034339073702],[30.819562872485438,-29.822411145955616],[30.820122447895212,-29.823163099710889],[30.819863436946534,-29.824163270469104],[30.819312536637504,-29.82478108602713],[30.81914160684429,-29.825358107240625],[30.818895208324179,-29.825505892684586],[30.818717125800493,-29.825918900464607],[30.818131327955655,-29.825585121365691],[30.817562024367597,-29.825792625516037],[30.81669290053917,-29.825659524200766],[30.816113663272894,-29.825026697345955],[30.816260276552516,-29.824012214606903],[30.815915745770344,-29.822679680743015],[30.815580981694961,-29.82244520345602],[30.814729336995558,-29.821385109218507],[30.81498314150906,-29.820812359253747],[30.815169748407122,-29.819878221076767],[30.812886314710745,-29.817726708139279],[30.812693210766433,-29.815776433114081],[30.811707298516943,-29.815085627842482],[30.81208289450781,-29.81482419410062],[30.813101653989378,-29.813717498855823],[30.813332951773155,-29.813556621777799],[30.81351920966107,-29.812811369192495],[30.813959104175556,-29.81228813970699],[30.81435353695564,-29.811454967235921],[30.813842449214139,-29.810693944888403],[30.814154939359931,-29.810955462866787],[30.814715797989194,-29.811161508752356],[30.81547578015147,-29.811383622109393],[30.816507044721096,-29.811763998364469],[30.817968522265136,-29.812118295333477],[30.818228829848699,-29.812270149640813],[30.818653011177005,-29.812531642193541],[30.8190666040209,-29.813314938419634],[30.819127416370421,-29.813787100019866],[30.81933629216698,-29.814057282033779],[30.819679323261841,-29.81459456530775],[30.819720295123901,-29.814711335946207],[30.81978593981394,-29.814741132124208],[30.819994675075655,-29.814823315211758],[30.82016443866377,-29.814916415514769],[30.820261597883167,-29.81498579891284],[30.820451106659139,-29.815123951521333],[30.820663978583958,-29.815462083283961],[30.82078570551537,-29.815924196582152],[30.82080506611987,-29.816151749529915],[30.82043154151469,-29.816944791640104],[30.820435546180335,-29.816948075802308],[30.820761056198187,-29.817169561298666],[30.8210503843659,-29.817375208041188],[30.821339603495854,-29.817644008011161],[30.821556263893317,-29.8179916496312],[30.821736854094478,-29.818260299267198],[30.821953302677063,-29.818734247028296],[30.822314358523709,-29.81935048588841],[30.822497060820581,-29.819537002628572],[30.822479427009959,-29.819559755192586],[30.822009003791447,-29.819687149717424],[30.821600829368641,-29.819955925208735],[30.821310192921079,-29.820127901090004],[30.821019507501276,-29.820326808851497]]]}}
]
}
